,id,ident,type,name,latitude_deg,longitude_deg,elevation_ft,continent,iso_country,iso_region,municipality,scheduled_service,gps_code,iata_code,local_code,home_link,wikipedia_link,keywords
6239,12243,5A8,medium_airport,Aleknagik / New Airport,59.2826004028,-158.617996216,66.0,,US,US-AK,Aleknagik,yes,5A8,WKK,5A8,,https://en.wikipedia.org/wiki/Aleknagik_Airport,
29173,3356,KABE,medium_airport,Lehigh Valley International Airport,40.652099609375,-75.44080352783203,393.0,,US,US-PA,Allentown,yes,KABE,ABE,ABE,,https://en.wikipedia.org/wiki/Lehigh_Valley_International_Airport,
29174,3357,KABI,medium_airport,Abilene Regional Airport,32.4113006592,-99.68190002440001,1791.0,,US,US-TX,Abilene,yes,KABI,ABI,ABI,,https://en.wikipedia.org/wiki/Abilene_Regional_Airport,
29176,3358,KABR,medium_airport,Aberdeen Regional Airport,45.44910049438477,-98.42179870605469,1302.0,,US,US-SD,Aberdeen,yes,KABR,ABR,ABR,,https://en.wikipedia.org/wiki/Aberdeen_Regional_Airport,
29177,3359,KABY,medium_airport,Southwest Georgia Regional Airport,31.535499572753906,-84.19450378417969,197.0,,US,US-GA,Albany,yes,KABY,ABY,ABY,,https://en.wikipedia.org/wiki/Southwest_Georgia_Regional_Airport,
29180,3360,KACK,medium_airport,Nantucket Memorial Airport,41.25310135,-70.06020355,47.0,,US,US-MA,Nantucket,yes,KACK,ACK,ACK,,https://en.wikipedia.org/wiki/Nantucket_Memorial_Airport,
29183,3361,KACT,medium_airport,Waco Regional Airport,31.61129951477051,-97.23049926757812,516.0,,US,US-TX,Waco,yes,KACT,ACT,ACT,,https://en.wikipedia.org/wiki/Waco_Regional_Airport,
29184,3362,KACV,medium_airport,California Redwood Coast-Humboldt County Airport,40.978101,-124.109,221.0,,US,US-CA,Arcata/Eureka,yes,KACV,ACV,ACV,,https://en.wikipedia.org/wiki/Arcata-Eureka_Airport,Arcata Airport
29185,3363,KACY,medium_airport,Atlantic City International Airport,39.45759963989258,-74.57720184326172,75.0,,US,US-NJ,Atlantic City,yes,KACY,ACY,ACY,,https://en.wikipedia.org/wiki/Atlantic_City_International_Airport,
29199,3365,KAEX,medium_airport,Alexandria International Airport,31.32740020751953,-92.54979705810548,89.0,,US,US-LA,Alexandria,yes,KAEX,AEX,AEX,,https://en.wikipedia.org/wiki/Alexandria_International_Airport,
29208,3367,KAGC,medium_airport,Allegheny County Airport,40.354400634765625,-79.9301986694336,1252.0,,US,US-PA,Pittsburgh,no,KAGC,AGC,AGC,,https://en.wikipedia.org/wiki/Allegheny_County_Airport,
29215,3369,KAHN,medium_airport,Athens Ben Epps Airport,33.94860076904297,-83.32630157470703,808.0,,US,US-GA,Athens,yes,KAHN,AHN,AHN,,https://en.wikipedia.org/wiki/Athens-Ben_Epps_Airport,
29235,3370,KAKR,medium_airport,Akron Executive Airport,41.037498,-81.466904,1067.0,,US,US-OH,Akron,no,KAKR,AKC,AKR,,https://en.wikipedia.org/wiki/Akron_Executive_Airport,"akron executive, akron fulton international"
29236,3371,KALB,medium_airport,Albany International Airport,42.74829864501953,-73.80169677734375,285.0,,US,US-NY,Albany,yes,KALB,ALB,ALB,http://www.albanyairport.com/,https://en.wikipedia.org/wiki/Albany_International_Airport,
29237,3372,KALI,medium_airport,Alice International Airport,27.740900039699998,-98.02690124510002,178.0,,US,US-TX,Alice,no,KALI,ALI,ALI,,https://en.wikipedia.org/wiki/Alice_International_Airport,
29238,3373,KALM,medium_airport,Alamogordo White Sands Regional Airport,32.839900970500004,-105.990997314,4200.0,,US,US-NM,Alamogordo,no,KALM,ALM,ALM,,https://en.wikipedia.org/wiki/Alamogordo-White_Sands_Regional_Airport,
29239,3374,KALN,medium_airport,St Louis Regional Airport,38.89030075069999,-90.04599761959999,544.0,,US,US-IL,Alton/St Louis,no,KALN,ALN,ALN,,https://en.wikipedia.org/wiki/St._Louis_Regional_Airport,Civic Memorial Airport
29240,3375,KALO,medium_airport,Waterloo Regional Airport,42.55709838867188,-92.40029907226562,873.0,,US,US-IA,Waterloo,yes,KALO,ALO,ALO,,https://en.wikipedia.org/wiki/Waterloo_Regional_Airport,
29241,19275,KALS,medium_airport,San Luis Valley Regional Airport/Bergman Field,37.434898,-105.866997,7539.0,,US,US-CO,Alamosa,yes,KALS,ALS,ALS,https://www.sanluisvalleyairport.org/,https://en.wikipedia.org/wiki/San_Luis_Valley_Regional_Airport,
29242,3376,KALW,medium_airport,Walla Walla Regional Airport,46.09489822,-118.288002,1194.0,,US,US-WA,Walla Walla,yes,KALW,ALW,ALW,,https://en.wikipedia.org/wiki/Walla_Walla_Regional_Airport,
29249,3378,KANB,medium_airport,Anniston Regional Airport,33.5882,-85.8581,612.0,,US,US-AL,Anniston,no,KANB,ANB,ANB,,https://en.wikipedia.org/wiki/Anniston_Metropolitan_Airport,Anniston Metropolitan
29250,3379,KAND,medium_airport,Anderson Regional Airport,34.4945983887,-82.70939636230001,782.0,,US,US-SC,Anderson,no,KAND,AND,AND,,https://en.wikipedia.org/wiki/Anderson_Regional_Airport,
29260,3380,KAOO,medium_airport,Altoona Blair County Airport,40.29639816,-78.31999969,1503.0,,US,US-PA,Altoona,yes,KAOO,AOO,AOO,,https://en.wikipedia.org/wiki/Altoona-Blair_County_Airport,
29262,19291,KAPA,medium_airport,Centennial Airport,39.57009888,-104.84899899999999,5885.0,,US,US-CO,Denver,no,KAPA,APA,APA,,https://en.wikipedia.org/wiki/Centennial_Airport,Arapahoe County Airport
29264,19293,KAPF,medium_airport,Naples Municipal Airport,26.1525993347,-81.7752990723,8.0,,US,US-FL,Naples,no,KAPF,APF,APF,,https://en.wikipedia.org/wiki/Naples_Municipal_Airport,
29265,3381,KAPG,medium_airport,Phillips Army Air Field,39.466202,-76.1688,57.0,,US,US-MD,Aberdeen Proving Grounds(Aberdeen),no,KAPG,APG,APG,,https://en.wikipedia.org/wiki/Phillips_Army_Airfield,
29267,3382,KAPN,medium_airport,Alpena County Regional Airport,45.07809829999999,-83.56030273,690.0,,US,US-MI,Alpena,yes,KAPN,APN,APN,,https://en.wikipedia.org/wiki/Alpena_County_Regional_Airport,
29277,19301,KARA,medium_airport,Acadiana Regional Airport,30.0378,-91.883904,24.0,,US,US-LA,New Iberia,no,KARA,ARA,ARA,http://www.flyiberiaparish.com/,https://en.wikipedia.org/wiki/Acadiana_Regional_Airport,
29282,3383,KART,medium_airport,Watertown International Airport,43.99190139770508,-76.02169799804688,325.0,,US,US-NY,Watertown,yes,KART,ART,ART,,https://en.wikipedia.org/wiki/Watertown_International_Airport,
29286,19308,KASE,medium_airport,Aspen-Pitkin Co/Sardy Field,39.22320175,-106.8690033,7820.0,,US,US-CO,Aspen,yes,KASE,ASE,ASE,http://aspenairport.com/,https://en.wikipedia.org/wiki/Aspen%E2%80%93Pitkin_County_Airport,
29292,19314,KAST,medium_airport,Astoria Regional Airport,46.158000946,-123.87899780299999,15.0,,US,US-OR,Astoria,no,KAST,AST,AST,,https://en.wikipedia.org/wiki/Astoria_Regional_Airport,
29300,3385,KATY,medium_airport,Watertown Regional Airport,44.91400146,-97.15470123,1749.0,,US,US-SD,Watertown,yes,KATY,ATY,ATY,,https://en.wikipedia.org/wiki/Watertown_Regional_Airport,
29301,19321,KAUG,medium_airport,Augusta State Airport,44.320598602299995,-69.7973022461,352.0,,US,US-ME,Augusta,yes,KAUG,AUG,AUG,,https://en.wikipedia.org/wiki/Augusta_State_Airport,
29307,19326,KAUW,medium_airport,Wausau Downtown Airport,44.9262008667,-89.62660217290001,1201.0,,US,US-WI,Wausau,no,KAUW,AUW,AUW,http://www.ci.wausau.wi.us/Departments/Airport/GeneralInformation.aspx,https://en.wikipedia.org/wiki/Wausau_Downtown_Airport,
29312,3388,KAVP,medium_airport,Wilkes Barre Scranton International Airport,41.338500976599995,-75.72339630130001,962.0,,US,US-PA,Wilkes-Barre/Scranton,yes,KAVP,AVP,AVP,http://www.flyavp.com/,https://en.wikipedia.org/wiki/Wilkes-Barre/Scranton_International_Airport,
29320,3389,KAXN,medium_airport,Chandler Field,45.866298675500005,-95.3946990967,1425.0,,US,US-MN,Alexandria,no,KAXN,AXN,AXN,,https://en.wikipedia.org/wiki/Alexandria_Municipal_Airport,
29330,3390,KAZO,medium_airport,Kalamazoo Battle Creek International Airport,42.234901428222656,-85.5521011352539,874.0,,US,US-MI,Kalamazoo,yes,KAZO,AZO,AZO,,https://en.wikipedia.org/wiki/Kalamazoo-Battle_Creek_International_Airport,
29336,3393,KBAF,medium_airport,Westfield-Barnes Regional Airport,42.157799,-72.715599,271.0,,US,US-MA,Westfield/Springfield,no,KBAF,BAF,BAF,,https://en.wikipedia.org/wiki/Westfield-Barnes_Regional_Airport,Barnes Municipal Airport
29337,3394,KBAK,medium_airport,Columbus Municipal Airport,39.2619018555,-85.8963012695,656.0,,US,US-IN,Columbus,no,KBAK,CLU,BAK,,https://en.wikipedia.org/wiki/Columbus_Municipal_Airport_(Indiana),
29342,19353,KBBD,medium_airport,Curtis Field,31.179300308200002,-99.32389831540002,1827.0,,US,US-TX,Brady,no,KBBD,BBD,BBD,,https://en.wikipedia.org/wiki/Curtis_Field,
29346,19357,KBCE,medium_airport,Bryce Canyon Airport,37.706401825,-112.144996643,7590.0,,US,US-UT,Bryce Canyon,no,KBCE,BCE,BCE,http://www.brycecanyonairport.com/,https://en.wikipedia.org/wiki/Bryce_Canyon_Airport,
29349,3395,KBDE,medium_airport,Baudette International Airport,48.7284011841,-94.61219787600001,1086.0,,US,US-MN,Baudette,no,KBDE,BDE,BDE,,https://en.wikipedia.org/wiki/Baudette_International_Airport,
29355,3397,KBDR,medium_airport,Igor I Sikorsky Memorial Airport,41.16350173950195,-73.1261978149414,9.0,,US,US-CT,Bridgeport,yes,KBDR,BDR,BDR,,https://en.wikipedia.org/wiki/Sikorsky_Memorial_Airport,
29361,3398,KBED,medium_airport,Laurence G Hanscom Field,42.47000122,-71.28900146,133.0,,US,US-MA,Bedford,no,KBED,BED,BED,http://www.massport.com/hansc/,https://en.wikipedia.org/wiki/Hanscom_Field,Hanscom Air Force Base
29364,3399,KBFD,medium_airport,Bradford Regional Airport,41.8031005859375,-78.64009857177734,2143.0,,US,US-PA,Bradford,yes,KBFD,BFD,BFD,,https://en.wikipedia.org/wiki/Bradford_Regional_Airport,
29366,3400,KBFF,medium_airport,Western Neb. Rgnl/William B. Heilig Airport,41.87400055,-103.5960007,3967.0,,US,US-NE,Scottsbluff,yes,KBFF,BFF,BFF,,https://en.wikipedia.org/wiki/Western_Nebraska_Regional_Airport,William B. Heilig Field
29369,3402,KBFL,medium_airport,Meadows Field,35.43360138,-119.0569992,510.0,,US,US-CA,Bakersfield,no,KBFL,BFL,BFL,,https://en.wikipedia.org/wiki/Meadows_Field_Airport,
29370,3403,KBFM,medium_airport,Mobile Downtown Airport,30.626800537100006,-88.06809997559998,26.0,,US,US-AL,Mobile,no,KBFM,BFM,BFM,,https://en.wikipedia.org/wiki/Mobile_Downtown_Airport,
29376,3404,KBGM,medium_airport,Greater Binghamton/Edwin A Link field,42.20869827,-75.97979736,1636.0,,US,US-NY,Binghamton,yes,KBGM,BGM,BGM,http://binghamtonairport.com/,https://en.wikipedia.org/wiki/Greater_Binghamton_Airport,"Broome County Airport, Edwin A Link Field"
29379,19373,KBHB,medium_airport,Hancock County-Bar Harbor Airport,44.45000076,-68.36150359999999,83.0,,US,US-ME,Bar Harbor,yes,KBHB,BHB,BHB,,https://en.wikipedia.org/wiki/Hancock_County-Bar_Harbor_Airport,
29385,3407,KBIF,medium_airport,Biggs Army Air Field (Fort Bliss),31.84950066,-106.3799973,3946.0,,US,US-TX,Fort Bliss/El Paso,no,KBIF,BIF,BIF,https://www.bliss.army.mil/biggs/,https://en.wikipedia.org/wiki/Biggs_Army_Airfield,Fort Bliss
29386,19377,KBIH,medium_airport,Eastern Sierra Regional Airport,37.373100280799996,-118.36399841299999,4124.0,,US,US-CA,Bishop,no,KBIH,BIH,BIH,http://www.inyocounty.us/Airport/index.html,https://en.wikipedia.org/wiki/Eastern_Sierra_Regional_Airport,
29389,3409,KBIS,medium_airport,Bismarck Municipal Airport,46.77270126342773,-100.74600219726562,1661.0,,US,US-ND,Bismarck,yes,KBIS,BIS,BIS,http://bismarckairport.com/,https://en.wikipedia.org/wiki/Bismarck_Municipal_Airport,
29391,3410,KBIX,medium_airport,Keesler Air Force Base,30.4104003906,-88.92440032959999,33.0,,US,US-MS,Biloxi,no,KBIX,BIX,BIX,,https://en.wikipedia.org/wiki/Keesler_Air_Force_Base,
29392,3411,KBJC,medium_airport,Rocky Mountain Metropolitan Airport,39.90879822,-105.11699679999998,5673.0,,US,US-CO,Denver,no,KBJC,BJC,BJC,,https://en.wikipedia.org/wiki/Rocky_Mountain_Metropolitan_Airport,"Jefferson County Airport, Jeffco Airport"
29393,19380,KBJI,medium_airport,Bemidji Regional Airport,47.50939941,-94.93370056,1391.0,,US,US-MN,Bemidji,no,KBJI,BJI,BJI,http://www.bemidjiairport.org/,https://en.wikipedia.org/wiki/Bemidji_Regional_Airport,
29396,3412,KBKE,medium_airport,Baker City Municipal Airport,44.8372993469,-117.808998108,3373.0,,US,US-OR,Baker City,no,KBKE,BKE,BKE,http://www.bakeraircraft.com/,https://en.wikipedia.org/wiki/Baker_City_Municipal_Airport,
29397,3413,KBKF,medium_airport,Buckley Air Force Base,39.701698303200004,-104.75199890100001,5662.0,,US,US-CO,Aurora,no,KBKF,BFK,BKF,,https://en.wikipedia.org/wiki/Buckley_Air_Force_Base,
29398,3414,KBKL,medium_airport,Burke Lakefront Airport,41.51750183105469,-81.68329620361328,583.0,,US,US-OH,Cleveland,no,KBKL,BKL,BKL,http://www.clevelandairport.com/site/470/default.aspx,https://en.wikipedia.org/wiki/Cleveland_Burke_Lakefront_Airport,
29403,3415,KBKW,medium_airport,Raleigh County Memorial Airport,37.787300109899995,-81.1241989136,2504.0,,US,US-WV,Beckley,yes,KBKW,BKW,BKW,,https://en.wikipedia.org/wiki/Beckley_Raleigh_County_Memorial_Airport,
29405,19387,KBLF,medium_airport,Mercer County Airport,37.295799255371094,-81.20770263671875,2857.0,,US,US-WV,Bluefield,yes,KBLF,BLF,BLF,,https://en.wikipedia.org/wiki/Mercer_County_Airport_(West_Virginia),
29406,19388,KBLH,medium_airport,Blythe Airport,33.6192016602,-114.717002869,399.0,,US,US-CA,Blythe,no,KBLH,BLH,BLH,,https://en.wikipedia.org/wiki/Blythe_Airport,
29407,3416,KBLI,medium_airport,Bellingham International Airport,48.79280090332031,-122.53800201416016,170.0,,US,US-WA,Bellingham,yes,KBLI,BLI,BLI,,https://en.wikipedia.org/wiki/Bellingham_International_Airport,
29413,3418,KBMG,medium_airport,Monroe County Airport,39.14599990844727,-86.61669921875,846.0,,US,US-IN,Bloomington,no,KBMG,BMG,BMG,,https://en.wikipedia.org/wiki/Monroe_County_Airport_(Indiana),
29421,19397,KBNO,medium_airport,Burns Municipal Airport,43.5918998718,-118.955001831,4148.0,,US,US-OR,Burns,no,KBNO,BNO,BNO,http://www.ci.burns.or.us/airport.html,https://en.wikipedia.org/wiki/Burns_Municipal_Airport,
29427,19401,KBPI,medium_airport,Miley Memorial Field,42.58509827,-110.1110001,6990.0,,US,US-WY,Big Piney,no,KBPI,BPI,BPI,,https://en.wikipedia.org/wiki/Miley_Memorial_Field,Big Piney-Marbleton Airport
29428,19402,KBPK,medium_airport,Ozark Regional Airport,36.3689002991,-92.4704971313,928.0,,US,US-AR,Mountain Home,no,KBPK,WMH,BPK,http://www.flytheozarks.com/,https://en.wikipedia.org/wiki/Ozark_Regional_Airport,Baxter County Regional Airport
29430,3423,KBPT,medium_airport,Southeast Texas Regional Airport,29.9507999420166,-94.02069854736328,15.0,,US,US-TX,Beaumont/Port Arthur,yes,KBPT,BPT,BPT,,https://en.wikipedia.org/wiki/Southeast_Texas_Regional_Airport,
29431,3424,KBQK,medium_airport,Brunswick Golden Isles Airport,31.2588005065918,-81.46649932861328,26.0,,US,US-GA,Brunswick,yes,KBQK,BQK,BQK,,https://en.wikipedia.org/wiki/Brunswick_Golden_Isles_Airport,
29434,19406,KBRD,medium_airport,Brainerd Lakes Regional Airport,46.39830017,-94.13809967,1232.0,,US,US-MN,Brainerd,yes,KBRD,BRD,BRD,http://brainerdairport.com/,https://en.wikipedia.org/wiki/Brainerd_Lakes_Regional_Airport,Crow Wing County Airport
29435,3425,KBRL,medium_airport,Southeast Iowa Regional Airport,40.783199310302734,-91.12550354003906,698.0,,US,US-IA,Burlington,yes,KBRL,BRL,BRL,,https://en.wikipedia.org/wiki/Southeast_Iowa_Regional_Airport,
29436,3426,KBRO,medium_airport,Brownsville South Padre Island International Airport,25.90679931640625,-97.4259033203125,22.0,,US,US-TX,Brownsville,yes,KBRO,BRO,BRO,,https://en.wikipedia.org/wiki/Brownsville/South_Padre_Island_International_Airport,
29441,3427,KBTL,medium_airport,Battle Creek Executive Airport at Kellogg Field,42.307301,-85.251503,952.0,,US,US-MI,Battle Creek,no,KBTL,BTL,BTL,http://www.battlecreekmi.gov/City_Government/Departments/W_K__Kellogg_Airport.htm,https://en.wikipedia.org/wiki/W.K._Kellogg_Regional_Airport,W K Kellogg
29442,3428,KBTM,medium_airport,Bert Mooney Airport,45.95479965209961,-112.49700164794922,5550.0,,US,US-MT,Butte,yes,KBTM,BTM,BTM,,https://en.wikipedia.org/wiki/Bert_Mooney_Airport,
29445,3429,KBTR,medium_airport,Baton Rouge Metropolitan Airport,30.533199,-91.149597,70.0,,US,US-LA,Baton Rouge,yes,KBTR,BTR,BTR,,https://en.wikipedia.org/wiki/Baton_Rouge_Metropolitan_Airport,
29446,3430,KBTV,medium_airport,Burlington International Airport,44.471900939899996,-73.15329742429998,335.0,,US,US-VT,Burlington,yes,KBTV,BTV,BTV,http://www.vermontairports.com/btv.html,https://en.wikipedia.org/wiki/Burlington_International_Airport,
29451,3432,KBUR,medium_airport,Bob Hope Airport,34.200698852539055,-118.35900115966795,778.0,,US,US-CA,Burbank,yes,KBUR,BUR,BUR,,,
29454,19417,KBVI,medium_airport,Beaver County Airport,40.7724990845,-80.39140319820001,1253.0,,US,US-PA,Beaver Falls,no,KBVI,BFP,BVI,,https://en.wikipedia.org/wiki/Beaver_County_Airport,
29459,3433,KBVY,medium_airport,Beverly Regional Airport,42.584202000000005,-70.916496,107.0,,US,US-MA,Beverly / Danvers,no,KBVY,BVY,BVY,http://www.beverlyairport.com/,https://en.wikipedia.org/wiki/Beverly_Municipal_Airport,
29462,3434,KBWG,medium_airport,Bowling Green Warren County Regional Airport,36.9645004272,-86.41970062259999,547.0,,US,US-KY,Bowling Green,no,KBWG,BWG,BWG,,https://en.wikipedia.org/wiki/Bowling_Green-Warren_County_Regional_Airport,
29470,3436,KBYH,medium_airport,Arkansas International Airport,35.9642982483,-89.94400024410002,254.0,,US,US-AR,Blytheville,no,KBYH,BYH,BYH,,https://en.wikipedia.org/wiki/Arkansas_International_Airport,"Blytheville AFB, Eaker AFB"
29471,19429,KBYI,medium_airport,Burley Municipal Airport,42.5425987244,-113.77200317399999,4150.0,,US,US-ID,Burley,no,KBYI,BYI,BYI,http://burleyidaho.org/city-of-burley/airport/,https://en.wikipedia.org/wiki/Burley_Municipal_Airport,J R Jack Simplot Airport
29472,19430,KBYS,medium_airport,Bicycle Lake Army Air Field,35.2804985046,-116.629997253,2350.0,,US,US-CA,Fort Irwin/Barstow,no,KBYS,BYS,BYS,,https://en.wikipedia.org/wiki/Bicycle_Lake_Army_Airfield,
29474,3437,KBZN,medium_airport,Gallatin Field,45.77750015,-111.15299990000001,4473.0,,US,US-MT,Bozeman,yes,KBZN,BZN,BZN,,https://en.wikipedia.org/wiki/Gallatin_Field_Airport,
29504,3439,KCAK,medium_airport,Akron Canton Regional Airport,40.916099548339844,-81.44219970703125,1228.0,,US,US-OH,Akron,yes,KCAK,CAK,CAK,,https://en.wikipedia.org/wiki/Akron-Canton_Regional_Airport,
29506,3440,KCAR,medium_airport,Caribou Municipal Airport,46.8714981079,-68.0178985596,626.0,,US,US-ME,Caribou,no,KCAR,CAR,CAR,,https://en.wikipedia.org/wiki/Caribou_Municipal_Airport,
29518,19470,KCCY,medium_airport,Northeast Iowa Regional Airport,43.072601318400004,-92.61080169680001,1125.0,,US,US-IA,Charles City,no,KCCY,CCY,CCY,,https://en.wikipedia.org/wiki/Northeast_Iowa_Regional_Airport,Charles City Municipal Airport
29520,3442,KCDC,medium_airport,Cedar City Regional Airport,37.70100021362305,-113.0989990234375,5622.0,,US,US-UT,Cedar City,yes,KCDC,CDC,CDC,,https://en.wikipedia.org/wiki/Cedar_City_Regional_Airport,
29524,19474,KCDR,medium_airport,Chadron Municipal Airport,42.837600708000004,-103.095001221,3297.0,,US,US-NE,Chadron,no,KCDR,CDR,CDR,,https://en.wikipedia.org/wiki/Chadron_Municipal_Airport,
29525,19475,KCDS,medium_airport,Childress Municipal Airport,34.4337997437,-100.288002014,1954.0,,US,US-TX,Childress,no,KCDS,CDS,CDS,,https://en.wikipedia.org/wiki/Childress_Municipal_Airport,
29528,3443,KCEC,medium_airport,Jack Mc Namara Field Airport,41.78020096,-124.23699950000001,61.0,,US,US-CA,Crescent City,yes,KCEC,CEC,CEC,,https://en.wikipedia.org/wiki/Del_Norte_County_Airport,Jack McNamara Field
29529,3444,KCEF,medium_airport,Westover ARB/Metropolitan Airport,42.19400024,-72.53479767,241.0,,US,US-MA,Springfield/Chicopee,no,KCEF,CEF,CEF,,https://en.wikipedia.org/wiki/Westover_Air_Reserve_Base/Metropolitan_Airport,
29533,3445,KCEW,medium_airport,Bob Sikes Airport,30.778799056999997,-86.522102356,213.0,,US,US-FL,Crestview,no,KCEW,CEW,CEW,http://www.flycew.com/,https://en.wikipedia.org/wiki/Bob_Sikes_Airport,
29545,3446,KCGF,medium_airport,Cuyahoga County Airport,41.5651016235,-81.4863967896,879.0,,US,US-OH,Cleveland,no,KCGF,CGF,CGF,http://publicworks.cuyahogacounty.us/en-US/County-Airport.aspx,https://en.wikipedia.org/wiki/Cuyahoga_County_Airport,
29546,3447,KCGI,medium_airport,Cape Girardeau Regional Airport,37.22529983520508,-89.57080078125,342.0,,US,US-MO,Cape Girardeau,yes,KCGI,CGI,CGI,,https://en.wikipedia.org/wiki/Cape_Girardeau_Regional_Airport,
29555,3449,KCHO,medium_airport,Charlottesville Albemarle Airport,38.13859939575195,-78.4529037475586,639.0,,US,US-VA,Charlottesville,yes,KCHO,CHO,CHO,,https://en.wikipedia.org/wiki/Charlottesville-Albemarle_Airport,
29565,3452,KCIU,medium_airport,Chippewa County International Airport,46.25080108642578,-84.47239685058594,800.0,,US,US-MI,Sault Ste Marie,yes,KCIU,CIU,CIU,,https://en.wikipedia.org/wiki/Chippewa_County_International_Airport,
29568,3453,KCKB,medium_airport,North Central West Virginia Airport,39.2966003418,-80.2281036377,1217.0,,US,US-WV,Clarksburg,yes,KCKB,CKB,CKB,,https://en.wikipedia.org/wiki/Harrison/Marion_Regional_Airport,
29581,3455,KCLL,medium_airport,Easterwood Field,30.58860016,-96.36380005,320.0,,US,US-TX,College Station,yes,KCLL,CLL,CLL,,https://en.wikipedia.org/wiki/Easterwood_Airport,
29582,3456,KCLM,medium_airport,William R Fairchild International Airport,48.120201110839844,-123.5,291.0,,US,US-WA,Port Angeles,yes,KCLM,CLM,CLM,,https://en.wikipedia.org/wiki/William_R._Fairchild_International_Airport,
29589,3459,KCMI,medium_airport,University of Illinois Willard Airport,40.03919983,-88.27809906,755.0,,US,US-IL,Champaign/Urbana,yes,KCMI,CMI,CMI,,https://en.wikipedia.org/wiki/University_of_Illinois_Willard_Airport,
29591,3460,KCMX,medium_airport,Houghton County Memorial Airport,47.16839981079102,-88.48909759521484,1095.0,,US,US-MI,Hancock,yes,KCMX,CMX,CMX,,https://en.wikipedia.org/wiki/Houghton_County_Memorial_Airport,
29598,3461,KCNM,medium_airport,Cavern City Air Terminal,32.337501525878906,-104.26300048828124,3295.0,,US,US-NM,Carlsbad,yes,KCNM,CNM,CNM,,https://en.wikipedia.org/wiki/Cavern_City_Air_Terminal,
29601,19527,KCNU,medium_airport,Chanute Martin Johnson Airport,37.668800354,-95.4850997925,1002.0,,US,US-KS,Chanute,no,KCNU,CNU,CNU,http://www.chanute.org/index.aspx?NID=65,https://en.wikipedia.org/wiki/Chanute_Martin_Johnson_Airport,
29604,19530,KCOD,medium_airport,Yellowstone Regional Airport,44.520198822,-109.024002075,5102.0,,US,US-WY,Cody,no,KCOD,COD,COD,http://www.flyyra.com/,https://en.wikipedia.org/wiki/Yellowstone_Regional_Airport,
29605,19531,KCOE,medium_airport,Coeur D'Alene - Pappy Boyington Field,47.77429962,-116.8199997,2320.0,,US,US-ID,Coeur d'Alene,no,KCOE,COE,COE,http://www.cdaairport.com/,https://en.wikipedia.org/wiki/Coeur_d'Alene_Airport,Coeur d'Alene Air Terminal
29606,3462,KCOF,medium_airport,Patrick Air Force Base,28.2348995209,-80.6100997925,8.0,,US,US-FL,Cocoa Beach,no,KCOF,COF,COF,http://www.patrick.af.mil/,https://en.wikipedia.org/wiki/Patrick_Air_Force_Base,Naval Air Station Banana River
29609,19534,KCON,medium_airport,Concord Municipal Airport,43.20270157,-71.50229645,342.0,,US,US-NH,Concord,no,KCON,CON,CON,http://www.concordnh.gov/facilities/facility/details/Concord-Municipal-Airport-31,https://en.wikipedia.org/wiki/Concord_Municipal_Airport,
29613,3464,KCOU,medium_airport,Columbia Regional Airport,38.8181,-92.219597,889.0,,US,US-MO,Columbia,yes,KCOU,COU,COU,,https://en.wikipedia.org/wiki/Columbia_Regional_Airport,
29617,3465,KCPR,medium_airport,Casper-Natrona County International Airport,42.908001,-106.46399699999999,5350.0,,US,US-WY,Casper,yes,KCPR,CPR,CPR,,https://en.wikipedia.org/wiki/Natrona_County_International_Airport,
29628,19549,KCRE,medium_airport,Grand Strand Airport,33.811698913600004,-78.72389984130002,32.0,,US,US-SC,North Myrtle Beach,no,KCRE,CRE,CRE,,https://en.wikipedia.org/wiki/Grand_Strand_Airport,
29629,19550,KCRG,medium_airport,Jacksonville Executive at Craig Airport,30.3362998962,-81.51439666750002,41.0,,US,US-FL,Jacksonville,no,KCRG,CRG,CRG,http://www.flyjacksonville.com/content.aspx?id=86,https://en.wikipedia.org/wiki/Jacksonville_Executive_at_Craig_Airport,Craig Municipal Airport
29632,19552,KCRQ,medium_airport,Mc Clellan-Palomar Airport,33.12829971,-117.27999879999999,331.0,,US,US-CA,Carlsbad,no,KCRQ,CLD,CRQ,,https://en.wikipedia.org/wiki/McClellan-Palomar_Airport,
29639,3468,KCSG,medium_airport,Columbus Metropolitan Airport,32.516300201416016,-84.93890380859375,397.0,,US,US-GA,Columbus,yes,KCSG,CSG,CSG,,https://en.wikipedia.org/wiki/Columbus_Metropolitan_Airport,
29642,3469,KCSV,medium_airport,Crossville Memorial Whitson Field,35.9513015747,-85.08499908450001,1881.0,,US,US-TN,Crossville,no,KCSV,CSV,CSV,http://www.crossvilletn.gov/index.php/departments/airport,,
29644,3470,KCTB,medium_airport,Cut Bank International Airport,48.6083984375,-112.375999451,3854.0,,US,US-MT,Cut Bank,no,KCTB,CTB,CTB,http://www.cutbankairport.org/,https://en.wikipedia.org/wiki/Cut_Bank_Municipal_Airport,
29649,19564,KCUB,medium_airport,Jim Hamilton L.B. Owens Airport,33.970500946,-80.9952011108,193.0,,US,US-SC,Columbia,no,KCUB,CUB,CUB,http://www.columbiasouthcarolina.com/owens.html,https://en.wikipedia.org/wiki/Jim_Hamilton_%E2%80%93_L.B._Owens_Airport,
29657,3472,KCVO,medium_airport,Corvallis Municipal Airport,44.49720001,-123.29000090000001,250.0,,US,US-OR,Corvallis,no,KCVO,CVO,CVO,http://www.corvallisoregon.gov/index.aspx?page=160,https://en.wikipedia.org/wiki/Corvallis_Municipal_Airport,Albany Oregon
29660,19571,KCWA,medium_airport,Central Wisconsin Airport,44.7775993347,-89.6668014526,1277.0,,US,US-WI,Mosinee,no,KCWA,CWA,CWA,,,
29669,3475,KCXO,medium_airport,Conroe-North Houston Regional Airport,30.351801000000002,-95.414497,245.0,,US,US-TX,Houston,no,KCXO,CXO,CXO,https://web.archive.org/web/20160301220928/http://www.lonestarairport.org:80/,https://en.wikipedia.org/wiki/Lone_Star_Executive_Airport,"Montgomery County Airport, Lone Star Executive Airport"
29675,3476,KCYS,medium_airport,Cheyenne Regional Jerry Olson Field,41.15570068,-104.81199649999999,6159.0,,US,US-WY,Cheyenne,yes,KCYS,CYS,CYS,,https://en.wikipedia.org/wiki/Cheyenne_Regional_Airport,
29709,3477,KDAA,medium_airport,Davison Army Air Field,38.715000152600005,-77.1809997559,73.0,,US,US-VA,Fort Belvoir,no,KDAA,DAA,DAA,,https://en.wikipedia.org/wiki/Davison_Army_Airfield,
29712,19615,KDAG,medium_airport,Barstow Daggett Airport,34.85369873,-116.78700259999998,1930.0,,US,US-CA,Daggett,no,KDAG,DAG,DAG,,https://en.wikipedia.org/wiki/Barstow-Daggett_Airport,
29714,3480,KDAN,medium_airport,Danville Regional Airport,36.572898864746094,-79.33609771728516,571.0,,US,US-VA,Danville,no,KDAN,DAN,DAN,,,
29723,3484,KDDC,medium_airport,Dodge City Regional Airport,37.76340103149414,-99.9655990600586,2594.0,,US,US-KS,Dodge City,yes,KDDC,DDC,DDC,,https://en.wikipedia.org/wiki/Dodge_City_Regional_Airport,
29725,3485,KDEC,medium_airport,Decatur Airport,39.83459854125977,-88.8656997680664,682.0,,US,US-IL,Decatur,yes,KDEC,DEC,DEC,,https://en.wikipedia.org/wiki/Decatur_Airport,
29730,3487,KDET,medium_airport,Coleman A. Young Municipal Airport,42.40919876,-83.00990295,626.0,,US,US-MI,Detroit,no,KDET,DET,DET,,https://en.wikipedia.org/wiki/Coleman_A._Young_International_Airport,
29736,3489,KDHN,medium_airport,Dothan Regional Airport,31.3213005065918,-85.44960021972656,401.0,,US,US-AL,Dothan,yes,KDHN,DHN,DHN,,https://en.wikipedia.org/wiki/Dothan_Regional_Airport,
29737,19628,KDHT,medium_airport,Dalhart Municipal Airport,36.0225982666,-102.54699707,3991.0,,US,US-TX,Dalhart,no,KDHT,DHT,DHT,,https://en.wikipedia.org/wiki/Dalhart_Municipal_Airport,
29739,19630,KDIK,medium_airport,Dickinson Theodore Roosevelt Regional Airport,46.7974014282,-102.80200195299999,2592.0,,US,US-ND,Dickinson,no,KDIK,DIK,DIK,http://dickinsonairport.com/,https://en.wikipedia.org/wiki/Dickinson_Theodore_Roosevelt_Regional_Airport,
29750,19640,KDLS,medium_airport,Columbia Gorge Regional the Dalles Municipal Airport,45.618499755900004,-121.166999817,247.0,,US,US-OR,The Dalles,no,KDLS,DLS,DLS,http://www.columbiagorgeairport.com/,https://en.wikipedia.org/wiki/Columbia_Gorge_Regional_Airport,
29752,3492,KDMA,medium_airport,Davis Monthan Air Force Base,32.1665000916,-110.883003235,2704.0,,US,US-AZ,Tucson,no,KDMA,DMA,DMA,,https://en.wikipedia.org/wiki/Davis-Monthan_Air_Force_Base,
29753,3493,KDMN,medium_airport,Deming Municipal Airport,32.262298584,-107.721000671,4314.0,,US,US-NM,Deming,no,KDMN,DMN,DMN,http://www.cityofdeming.org/deming-community/municipal-airport,https://en.wikipedia.org/wiki/Deming_Municipal_Airport,
29756,19644,KDNL,medium_airport,Daniel Field,33.4664993286,-82.0393981934,423.0,,US,US-GA,Augusta,no,KDNL,DNL,DNL,http://www.augustaga.gov/index.aspx?NID=486,https://en.wikipedia.org/wiki/Daniel_Field,
29762,19648,KDPA,medium_airport,Dupage Airport,41.90779877,-88.24859619,759.0,,US,US-IL,Chicago/West Chicago,no,KDPA,DPA,DPA,http://www.dupageairport.com/,https://en.wikipedia.org/wiki/DuPage_Airport,
29767,19652,KDRA,medium_airport,Desert Rock Airport,36.6194,-116.032997,3314.0,,US,US-NV,Mercury,no,KDRA,DRA,NV65,,https://en.wikipedia.org/wiki/Desert_Rock_Airport,Formerly DRA
29768,3495,KDRI,medium_airport,Beauregard Regional Airport,30.8316993713,-93.3398971558,202.0,,US,US-LA,De Ridder,no,KDRI,DRI,DRI,,https://en.wikipedia.org/wiki/Beauregard_Regional_Airport,"Beauregard Parish, DeRidder Army Air Base"
29772,19655,KDRT,medium_airport,Del Rio International Airport,29.3742008209,-100.92700195299999,1002.0,,US,US-TX,Del Rio,no,KDRT,DRT,DRT,http://www.cityofdelrio.com/index.aspx?NID=412,https://en.wikipedia.org/wiki/Del_Rio_International_Airport,
29784,19664,KDUG,medium_airport,Bisbee Douglas International Airport,31.4689998627,-109.60399627700001,4154.0,,US,US-AZ,Douglas Bisbee,no,KDUG,DUG,DUG,http://www.azdot.gov/mpd/airport_development/airports/airports_list.asp?FAA=DUG,https://en.wikipedia.org/wiki/Bisbee-Douglas_International_Airport,
29786,3498,KDUJ,medium_airport,DuBois Regional Airport,41.17829895,-78.8986969,1817.0,,US,US-PA,Dubois,yes,KDUJ,DUJ,DUJ,,https://en.wikipedia.org/wiki/DuBois_Regional_Airport,DuBois Jefferson County
30161,19717,KEAT,medium_airport,Pangborn Memorial Airport,47.3988990784,-120.20700073200001,1249.0,,US,US-WA,Wenatchee,no,KEAT,EAT,EAT,http://www.pangbornairport.com/,https://en.wikipedia.org/wiki/Pangborn_Memorial_Airport,
30162,3501,KEAU,medium_airport,Chippewa Valley Regional Airport,44.86579895019531,-91.48429870605469,913.0,,US,US-WI,Eau Claire,yes,KEAU,EAU,EAU,,https://en.wikipedia.org/wiki/Chippewa_Valley_Regional_Airport,
30168,3502,KECG,medium_airport,Elizabeth City Regional Airport & Coast Guard Air Station,36.260601,-76.174599,11.0,,US,US-NC,Elizabeth City,no,KECG,ECG,ECG,http://www.ecgairport.com/,https://en.wikipedia.org/wiki/Elizabeth_City_Regional_Airport,
30169,46530,KECP,medium_airport,Northwest Florida Beaches International Airport,30.357105999999998,-85.79541400000001,69.0,,US,US-FL,Panama City Beach,yes,KECP,ECP,ECP,http://iflybeaches.com,https://en.wikipedia.org/wiki/Northwest_Florida_Beaches_International_Airport,Northwest Florida Beaches International Airport
30180,19727,KEED,medium_airport,Needles Airport,34.7663002014,-114.62300109899999,983.0,,US,US-CA,Needles,no,KEED,EED,EED,http://cms.sbcounty.gov/airports/Airports/Needles.aspx,https://en.wikipedia.org/wiki/Needles_Airport,Needles AAF
30181,3504,KEEN,medium_airport,Dillant Hopkins Airport,42.898399,-72.270798,488.0,,US,US-NH,Keene,no,KEEN,EEN,EEN,https://ci.keene.nh.us/keene-dillant-hopkins-airport,https://en.wikipedia.org/wiki/Dillant-Hopkins_Airport,
30185,19731,KEFD,medium_airport,Ellington Airport,29.6072998047,-95.15879821780001,32.0,,US,US-TX,Houston,no,KEFD,EFD,EFD,,https://en.wikipedia.org/wiki/Ellington_Airport_(Texas),Ellington Field
30190,3505,KEGE,medium_airport,Eagle County Regional Airport,39.64260101,-106.9179993,6548.0,,US,US-CO,Eagle,yes,KEGE,EGE,EGE,http://www.eaglecounty.us/airport/,https://en.wikipedia.org/wiki/Eagle_County_Regional_Airport,
30191,19735,KEGI,medium_airport,Duke Field,30.65040016,-86.52290344,191.0,,US,US-FL,Crestview,no,KEGI,EGI,EGI,http://www.919sow.afrc.af.mil/,https://en.wikipedia.org/wiki/Duke_Field,Eglin AF Auxiliary Number 3
30202,3506,KEKA,medium_airport,Murray Field,40.8033981323,-124.112998962,7.0,,US,US-CA,Eureka,no,KEKA,EKA,EKA,,https://en.wikipedia.org/wiki/Murray_Field,
30204,3507,KEKN,medium_airport,Elkins-Randolph Co-Jennings Randolph Field,38.88940048,-79.85710144,1987.0,,US,US-WV,Elkins,no,KEKN,EKN,EKN,http://www.elkinsairport.com/,,
30205,3508,KEKO,medium_airport,Elko Regional Airport,40.82490158081055,-115.79199981689452,5140.0,,US,US-NV,Elko,yes,KEKO,EKO,EKO,,https://en.wikipedia.org/wiki/Elko_Regional_Airport,
30211,3509,KELD,medium_airport,South Arkansas Regional At Goodwin Field,33.22100067138672,-92.81330108642578,277.0,,US,US-AR,El Dorado,yes,KELD,ELD,ELD,,https://en.wikipedia.org/wiki/South_Arkansas_Regional_Airport_at_Goodwin_Field,
30213,3510,KELM,medium_airport,Elmira Corning Regional Airport,42.1599006652832,-76.8916015625,954.0,,US,US-NY,Elmira/Corning,yes,KELM,ELM,ELM,,https://en.wikipedia.org/wiki/Elmira-Corning_Regional_Airport,
30215,3511,KELO,medium_airport,Ely Municipal Airport,47.82450104,-91.83070374,1456.0,,US,US-MN,Ely,no,KELO,LYU,ELO,http://www.ely.mn.us/index.asp?Type=B_BASIC&SEC=%7B936B252D-C48B-42BD-B996-37F320A6CFF7%7D,https://en.wikipedia.org/wiki/Ely_Municipal_Airport,
30216,3512,KELP,medium_airport,El Paso International Airport,31.80719948,-106.37799840000002,3959.0,,US,US-TX,El Paso,yes,KELP,ELP,ELP,,https://en.wikipedia.org/wiki/El_Paso_International_Airport,
30217,19753,KELY,medium_airport,Ely Airport Yelland Field,39.29970169,-114.84200290000001,6259.0,,US,US-NV,Ely,no,KELY,ELY,ELY,,https://en.wikipedia.org/wiki/Ely_Airport,
30225,19760,KENV,medium_airport,Wendover Airport,40.7187004089,-114.03099823,4237.0,,US,US-UT,Wendover,no,KENV,ENV,ENV,,https://en.wikipedia.org/wiki/Wendover_Airport,Wendover AFB
30226,3514,KENW,medium_airport,Kenosha Regional Airport,42.59569931,-87.92780304,742.0,,US,US-WI,Kenosha,no,KENW,ENW,ENW,http://www.kenosha.org/departments/airport/,https://en.wikipedia.org/wiki/Kenosha_Regional_Airport,
30240,3516,KESF,medium_airport,Esler Regional Airport,31.3948993683,-92.29579925540001,112.0,,US,US-LA,Alexandria,no,KESF,ESF,ESF,http://www.alexandria-louisiana.com/esler-field-louisiana.htm,https://en.wikipedia.org/wiki/Esler_Airfield,"Camp Beauregard Army Field, Esler Army Airfield"
30249,3517,KEUG,medium_airport,Mahlon Sweet Field,44.12459945678711,-123.21199798583984,374.0,,US,US-OR,Eugene,yes,KEUG,EUG,EUG,,https://en.wikipedia.org/wiki/Eugene_Airport,
30254,3518,KEVV,medium_airport,Evansville Regional Airport,38.0369987488,-87.53240203860001,418.0,,US,US-IN,Evansville,yes,KEVV,EVV,EVV,,https://en.wikipedia.org/wiki/Evansville_Regional_Airport,
30255,19782,KEVW,medium_airport,Evanston-Uinta County Airport-Burns Field,41.27479935,-111.0350037,7143.0,,US,US-WY,Evanston,no,KEVW,EVW,EVW,,,
30257,3519,KEWB,medium_airport,New Bedford Regional Airport,41.67610168457031,-70.95690155029297,80.0,,US,US-MA,New Bedford,yes,KEWB,EWB,EWB,,https://en.wikipedia.org/wiki/New_Bedford_Regional_Airport,
30259,3520,KEWN,medium_airport,Coastal Carolina Regional Airport,35.0730018616,-77.04290008539998,18.0,,US,US-NC,New Bern,yes,KEWN,EWN,EWN,,https://en.wikipedia.org/wiki/Craven_County_Regional_Airport,
30266,3522,KEYW,medium_airport,Key West International Airport,24.556100845336914,-81.75959777832031,3.0,,US,US-FL,Key West,yes,KEYW,EYW,EYW,,https://en.wikipedia.org/wiki/Key_West_International_Airport,
30321,19843,KFAF,medium_airport,Felker Army Air Field,37.1324996948,-76.60880279540002,12.0,,US,US-VA,Fort Eustis,no,KFAF,FAF,FAF,,,
30323,3523,KFAR,medium_airport,Hector International Airport,46.92070007324219,-96.81580352783205,902.0,,US,US-ND,Fargo,yes,KFAR,FAR,FAR,http://www.fargoairport.com/,https://en.wikipedia.org/wiki/Hector_International_Airport,"119th Wing, Happy Hooligans"
30324,3524,KFAT,medium_airport,Fresno Yosemite International Airport,36.776199,-119.718002,336.0,,US,US-CA,Fresno,yes,KFAT,FAT,FAT,https://flyfresno.com/,https://en.wikipedia.org/wiki/Fresno_Yosemite_International_Airport,
30325,3525,KFAY,medium_airport,Fayetteville Regional Grannis Field,34.991199493408196,-78.88030242919922,189.0,,US,US-NC,Fayetteville,yes,KFAY,FAY,FAY,,https://en.wikipedia.org/wiki/Fayetteville_Regional_Airport,
30326,3526,KFBG,medium_airport,Simmons Army Air Field,35.13180161,-78.93669891,244.0,,US,US-NC,Fort Bragg,no,KFBG,FBG,FBG,,https://en.wikipedia.org/wiki/Simmons_Army_Airfield,
30333,19851,KFCS,medium_airport,Butts AAF (Fort Carson) Air Field,38.67839813,-104.75700379999999,5838.0,,US,US-CO,Fort Carson,no,KFCS,FCS,FCS,,,
30339,19857,KFDY,medium_airport,Findlay Airport,41.013500213600004,-83.66870117190001,813.0,,US,US-OH,Findlay,no,KFDY,FDY,FDY,http://www.ci.findlay.oh.us/?id=56,https://en.wikipedia.org/wiki/Findlay_Airport,
30354,3529,KFHU,medium_airport,Sierra Vista Municipal Airport / Libby Army Air Field,31.587383000000003,-110.348225,4719.0,,US,US-AZ,Fort Huachuca / Sierra Vista,yes,KFHU,FHU,FHU,,https://en.wikipedia.org/wiki/Sierra_Vista_Municipal_Airport,"fort huachuca, sierra vista, libby"
30358,19872,KFKL,medium_airport,Venango Regional Airport,41.3778991699,-79.8603973389,1540.0,,US,US-PA,Franklin,no,KFKL,FKL,FKL,,https://en.wikipedia.org/wiki/Venango_Regional_Airport,
30363,3530,KFLG,medium_airport,Flagstaff Pulliam Airport,35.13850021,-111.6709976,7014.0,,US,US-AZ,Flagstaff,yes,KFLG,FLG,FLG,,https://en.wikipedia.org/wiki/Flagstaff_Pulliam_Airport,
30365,3532,KFLO,medium_airport,Florence Regional Airport,34.18539810180664,-79.7238998413086,146.0,,US,US-SC,Florence,yes,KFLO,FLO,FLO,,https://en.wikipedia.org/wiki/Florence_Regional_Airport,
30371,3534,KFME,medium_airport,Tipton Airport,39.08539962769999,-76.7593994141,150.0,,US,US-MD,Fort Meade(Odenton),no,KFME,FME,FME,http://tiptonairport.org/,https://en.wikipedia.org/wiki/Tipton_Airport,Fort George G. Meade Army Airfield
30374,19881,KFMN,medium_airport,Four Corners Regional Airport,36.7411994934,-108.230003357,5506.0,,US,US-NM,Farmington,no,KFMN,FMN,FMN,,https://en.wikipedia.org/wiki/Four_Corners_Regional_Airport,
30375,19882,KFMY,medium_airport,Page Field,26.58659935,-81.86329650879998,17.0,,US,US-FL,Fort Myers,no,KFMY,FMY,FMY,http://www.flylcpa.com/aboutfmy,https://en.wikipedia.org/wiki/Page_Field,
30379,3535,KFNT,medium_airport,Bishop International Airport,42.96540069580078,-83.74359893798828,782.0,,US,US-MI,Flint,yes,KFNT,FNT,FNT,,https://en.wikipedia.org/wiki/Bishop_International_Airport,
30381,3536,KFOD,medium_airport,Fort Dodge Regional Airport,42.55149841,-94.19259644,1156.0,,US,US-IA,Fort Dodge,yes,KFOD,FOD,FOD,,https://en.wikipedia.org/wiki/Fort_Dodge_Regional_Airport,
30382,3537,KFOE,medium_airport,Topeka Regional Airport - Forbes Field,38.9509010315,-95.6635971069,1078.0,,US,US-KS,Topeka,no,KFOE,FOE,FOE,,https://en.wikipedia.org/wiki/Forbes_Field_(Kansas),"Topeka Army Airfield, Forbes AFB"
30388,3538,KFPR,medium_airport,St Lucie County International Airport,27.49510002,-80.36830139,24.0,,US,US-FL,Fort Pierce,no,KFPR,FPR,FPR,,https://en.wikipedia.org/wiki/St._Lucie_County_International_Airport,
30390,3539,KFRG,medium_airport,Republic Airport,40.7288017273,-73.41339874270001,82.0,,US,US-NY,Farmingdale,no,KFRG,FRG,FRG,http://www.republicairport.net/,https://en.wikipedia.org/wiki/Republic_Airport,Fairchild Flying Field
30392,3540,KFRI,medium_airport,Marshall Army Air Field,39.05530167,-96.76450348,1065.0,,US,US-KS,Fort Riley(Junction City),no,KFRI,FRI,FRI,,https://en.wikipedia.org/wiki/Marshall_Army_Airfield,
30395,3541,KFSD,medium_airport,Joe Foss Field Airport,43.5820007324,-96.741897583,1429.0,,US,US-SD,Sioux Falls,yes,KFSD,FSD,FSD,http://www.sfairport.com/,https://en.wikipedia.org/wiki/Sioux_Falls_Regional_Airport,"Joe Foss Field, Fighting Lobos, Sioux Falls Army Air Base, 114th Fighter Wing, Sioux Falls Regional Airport"
30397,3542,KFSI,medium_airport,Henry Post Army Air Field (Fort Sill),34.64979935,-98.40219879,1189.0,,US,US-OK,Fort Sill,no,KFSI,FSI,FSI,http://sill-www.army.mil/History/Airfield/henrypost.htm,https://en.wikipedia.org/wiki/Henry_Post_Army_Airfield,
30401,19900,KFST,medium_airport,Fort Stockton Pecos County Airport,30.9157009125,-102.916000366,3011.0,,US,US-TX,Fort Stockton,no,KFST,FST,FST,,https://en.wikipedia.org/wiki/Fort_Stockton%E2%80%93Pecos_County_Airport,"Gibbs Field, Fort Stockton Field"
30405,3544,KFTK,medium_airport,Godman Army Air Field,37.9071006775,-85.9720993042,756.0,,US,US-KY,Fort Knox,no,KFTK,FTK,FTK,,https://en.wikipedia.org/wiki/Godman_Army_Airfield,
30408,3546,KFTY,medium_airport,Fulton County Airport Brown Field,33.7790985107,-84.5214004517,841.0,,US,US-GA,Atlanta,no,KFTY,FTY,FTY,http://www.fultoncountyga.gov/component/content/article/223-general-services/2098-fulton-county-airport-brown-field,https://en.wikipedia.org/wiki/Fulton_County_Airport_(Georgia),
30417,19912,KFXE,medium_airport,Fort Lauderdale Executive Airport,26.1972999573,-80.1707000732,13.0,,US,US-FL,Fort Lauderdale,no,KFXE,FXE,FXE,http://www.fortlauderdale.gov/fxE/index.htm,https://en.wikipedia.org/wiki/Fort_Lauderdale_Executive_Airport,West Prospect Satellite Field
30422,3548,KFYV,medium_airport,Drake Field,36.00510025024414,-94.17009735107422,1251.0,,US,US-AR,Fayetteville,no,KFYV,FYV,FYV,,https://en.wikipedia.org/wiki/Drake_Field,
30480,19929,KGCC,medium_airport,Gillette Campbell County Airport,44.3488998413,-105.539001465,4365.0,,US,US-WY,Gillette,yes,KGCC,GCC,GCC,http://www.iflygillette.com/,https://en.wikipedia.org/wiki/Gillette%E2%80%93Campbell_County_Airport,
30482,3550,KGCK,medium_airport,Garden City Regional Airport,37.9275016785,-100.72399902299999,2891.0,,US,US-KS,Garden City,yes,KGCK,GCK,GCK,,https://en.wikipedia.org/wiki/Garden_City_Regional_Airport,
30484,3551,KGCN,medium_airport,Grand Canyon National Park Airport,35.95240020751953,-112.14700317382812,6609.0,,US,US-AZ,Grand Canyon,yes,KGCN,GCN,GCN,http://www.azdot.gov/aviation/airports/airports_list.asp?FAA=GCN,https://en.wikipedia.org/wiki/Grand_Canyon_National_Park_Airport,
30490,19936,KGDV,medium_airport,Dawson Community Airport,47.13869858,-104.8069992,2458.0,,US,US-MT,Glendive,no,KGDV,GDV,GDV,,,
30500,3553,KGFK,medium_airport,Grand Forks International Airport,47.949298999999996,-97.176102,845.0,,US,US-ND,Grand Forks,yes,KGFK,GFK,GFK,http://www.gfkairport.com/,https://en.wikipedia.org/wiki/Grand_Forks_International_Airport,
30501,3554,KGFL,medium_airport,Floyd Bennett Memorial Airport,43.3412017822,-73.6102981567,328.0,,US,US-NY,Glens Falls,no,KGFL,GFL,GFL,http://www.warrencountydpw.com/airport_07/,https://en.wikipedia.org/wiki/Floyd_Bennett_Memorial_Airport,
30505,3555,KGGG,medium_airport,East Texas Regional Airport,32.38399887084961,-94.71150207519531,365.0,,US,US-TX,Longview,yes,KGGG,GGG,GGG,,https://en.wikipedia.org/wiki/East_Texas_Regional_Airport,
30508,3556,KGGW,medium_airport,Wokal Field/Glasgow-Valley County Airport,48.212502,-106.614998,2296.0,,US,US-MT,Glasgow,yes,KGGW,GGW,GGW,http://www.glasgowmtairport.com/,https://en.wikipedia.org/wiki/Glasgow_Airport_(US),"Glascow / Valley County, Glasgow AAF, Wokal Field Glasgow International"
30513,3557,KGJT,medium_airport,Grand Junction Regional Airport,39.1223983765,-108.527000427,4858.0,,US,US-CO,Grand Junction,yes,KGJT,GJT,GJT,http://www.gjairport.com/,https://en.wikipedia.org/wiki/Grand_Junction_Regional_Airport,
30517,19956,KGLD,medium_airport,Renner Field-Goodland Municipal Airport,39.37060165,-101.6989975,3656.0,,US,US-KS,Goodland,no,KGLD,GLD,GLD,,https://en.wikipedia.org/wiki/Goodland_Municipal_Airport,
30519,19958,KGLH,medium_airport,Mid Delta Regional Airport,33.482898712158196,-90.98560333251952,131.0,,US,US-MS,Greenville,yes,KGLH,GLH,GLH,,,
30521,3558,KGLS,medium_airport,Scholes International At Galveston Airport,29.265300750732425,-94.8603973388672,6.0,,US,US-TX,Galveston,no,KGLS,GLS,GLS,,,
30525,19963,KGMU,medium_airport,Greenville Downtown Airport,34.847900390599996,-82.34999847410002,1048.0,,US,US-SC,Greenville,no,KGMU,GMU,GMU,http://www.greenvilledowntownairport.com/,https://en.wikipedia.org/wiki/Greenville_Downtown_Airport,
30531,3559,KGNV,medium_airport,Gainesville Regional Airport,29.6900997162,-82.27179718020001,152.0,,US,US-FL,Gainesville,yes,KGNV,GNV,GNV,,https://en.wikipedia.org/wiki/Gainesville_Regional_Airport,
30533,3560,KGON,medium_airport,Groton New London Airport,41.3301010131836,-72.04509735107422,9.0,,US,US-CT,Groton (New London),no,KGON,GON,GON,,https://en.wikipedia.org/wiki/Groton-New_London_Airport,
30538,3527,KGPI,medium_airport,Glacier Park International Airport,48.31050109863281,-114.25599670410156,2977.0,,US,US-MT,Kalispell,yes,KGPI,FCA,GPI,http://www.iflyglacier.com/,https://en.wikipedia.org/wiki/Glacier_Park_International_Airport,Formerly KFCA
30546,3563,KGRF,medium_airport,Gray Army Air Field,47.07920074,-122.5810013,300.0,,US,US-WA,Fort Lewis/Tacoma,no,KGRF,GRF,GRF,,https://en.wikipedia.org/wiki/Gray_Army_Airfield,
30547,3564,KGRI,medium_airport,Central Nebraska Regional Airport,40.96749877929688,-98.30960083007812,1847.0,,US,US-NE,Grand Island,yes,KGRI,GRI,GRI,,https://en.wikipedia.org/wiki/Central_Nebraska_Regional_Airport,
30548,3565,KGRK,medium_airport,Robert Gray  Army Air Field Airport,31.067199706999997,-97.8289031982,1015.0,,US,US-TX,Fort Hood/Killeen,yes,KGRK,GRK,GRK,,https://en.wikipedia.org/wiki/Killeen-Fort_Hood_Regional_Airport,Robert Gray Army Air Field
30551,3566,KGRR,medium_airport,Gerald R. Ford International Airport,42.88079834,-85.52279663,794.0,,US,US-MI,Grand Rapids,yes,KGRR,GRR,GRR,,https://en.wikipedia.org/wiki/Gerald_R._Ford_International_Airport,
30559,3571,KGTF,medium_airport,Great Falls International Airport,47.48199844,-111.3710022,3680.0,,US,US-MT,Great Falls,yes,KGTF,GTF,GTF,,https://en.wikipedia.org/wiki/Great_Falls_International_Airport,
30561,19982,KGTR,medium_airport,Golden Triangle Regional Airport,33.450298309299995,-88.59140014649999,264.0,,US,US-MS,Columbus/W Point/Starkville,yes,KGTR,GTR,GTR,,,
30564,3572,KGUP,medium_airport,Gallup Municipal Airport,35.511100769,-108.789001465,6472.0,,US,US-NM,Gallup,no,KGUP,GUP,GUP,,https://en.wikipedia.org/wiki/Gallup_Municipal_Airport,
30566,19985,KGUY,medium_airport,Guymon Municipal Airport,36.6851005554,-101.508003235,3123.0,,US,US-OK,Guymon,no,KGUY,GUY,GUY,http://www.guymonok.org/index.aspx?NID=179,https://en.wikipedia.org/wiki/Guymon_Municipal_Airport,
30574,3574,KGWO,medium_airport,Greenwoodâ€“Leflore Airport,33.4943008423,-90.08470153809999,162.0,,US,US-MS,Greenwood,no,KGWO,GWO,GWO,http://greenwoodms.com/index.aspx?nid=113,https://en.wikipedia.org/wiki/Greenwood%E2%80%93Leflore_Airport,
30585,3575,KGYY,medium_airport,Gary Chicago International Airport,41.61629867553711,-87.41280364990234,591.0,,US,US-IN,Gary,no,KGYY,GYY,GYY,,https://en.wikipedia.org/wiki/Gary/Chicago_International_Airport,
30615,20027,KHBG,medium_airport,Hattiesburg Bobby L Chain Municipal Airport,31.26479912,-89.25279999,151.0,,US,US-MS,Hattiesburg,no,KHBG,HBG,HBG,,https://en.wikipedia.org/wiki/Hattiesburg_Bobby_L._Chain_Municipal_Airport,
30617,20029,KHBR,medium_airport,Hobart Regional Airport,34.991316999999995,-99.05131300000001,1563.0,,US,US-OK,Hobart,no,KHBR,HBR,HBR,,https://en.wikipedia.org/wiki/Hobart_Regional_Airport,
30635,3576,KHFD,medium_airport,Hartford Brainard Airport,41.736698150635,-72.64939880371101,18.0,,US,US-CT,Hartford,no,KHFD,HFD,HFD,,https://en.wikipedia.org/wiki/Hartford-Brainard_Airport,
30639,3577,KHGR,medium_airport,Hagerstown Regional Richard A Henson Field,39.707901,-77.72949982,703.0,,US,US-MD,Hagerstown,no,KHGR,HGR,HGR,,https://en.wikipedia.org/wiki/Hagerstown_Regional_Airport,
30642,3578,KHHR,medium_airport,Jack Northrop Field Hawthorne Municipal Airport,33.922798,-118.334999,66.0,,US,US-CA,Hawthorne,no,KHHR,HHR,HHR,,https://en.wikipedia.org/wiki/Hawthorne_Municipal_Airport_(California),
30646,3580,KHIF,medium_airport,Hill Air Force Base,41.12403,-111.97308600000001,4789.0,,US,US-UT,Ogden,no,KHIF,HIF,HIF,http://www.hill.af.mil/,https://en.wikipedia.org/wiki/Hill_Air_Force_Base,Hill Field
30649,20054,KHIO,medium_airport,Portland Hillsboro Airport,45.540401,-122.949997,208.0,,US,US-OR,Portland,no,KHIO,HIO,HIO,http://www.flypdx.com/Airports/Hillsboro/,https://en.wikipedia.org/wiki/Hillsboro_Airport,
30654,3581,KHKY,medium_airport,Hickory Regional Airport,35.74110031,-81.38950348,1190.0,,US,US-NC,Hickory,no,KHKY,HKY,HKY,,https://en.wikipedia.org/wiki/Hickory_Regional_Airport,
30658,20061,KHLG,medium_airport,Wheeling Ohio County Airport,40.1749992371,-80.6463012695,1195.0,,US,US-WV,Wheeling,no,KHLG,HLG,HLG,,https://en.wikipedia.org/wiki/Wheeling_Ohio_County_Airport,
30660,3582,KHLN,medium_airport,Helena Regional Airport,46.6068000793457,-111.98300170898438,3877.0,,US,US-MT,Helena,yes,KHLN,HLN,HLN,,https://en.wikipedia.org/wiki/Helena_Regional_Airport,
30661,3583,KHLR,medium_airport,Hood Army Air Field,31.1387004852,-97.7145004272,924.0,,US,US-TX,Fort Hood(Killeen),no,KHLR,HLR,HLR,,https://en.wikipedia.org/wiki/Hood_Army_Airfield,
30672,20071,KHOB,medium_airport,Lea County Regional Airport,32.6875,-103.21700290000001,3661.0,,US,US-NM,Hobbs,no,KHOB,HOB,HOB,,https://en.wikipedia.org/wiki/Lea_County_Regional_Airport,
30675,3585,KHON,medium_airport,Huron Regional Airport,44.38520050048828,-98.22850036621094,1289.0,,US,US-SD,Huron,yes,KHON,HON,HON,,https://en.wikipedia.org/wiki/Huron_Regional_Airport,
30676,3586,KHOP,medium_airport,Campbell AAF (Fort Campbell) Air Field,36.668598175,-87.49620056150002,573.0,,US,US-KY,Fort Campbell/Hopkinsville,no,KHOP,HOP,HOP,,https://en.wikipedia.org/wiki/Campbell_Army_Airfield,Campbell AFB
30677,3587,KHOT,medium_airport,Memorial Field,34.47800064086914,-93.09619903564452,540.0,,US,US-AR,Hot Springs,yes,KHOT,HOT,HOT,,https://en.wikipedia.org/wiki/Hot_Springs_Memorial_Field_Airport,
30679,3589,KHPN,medium_airport,Westchester County Airport,41.06700134277344,-73.70760345458984,439.0,,US,US-NY,White Plains,yes,KHPN,HPN,HPN,,https://en.wikipedia.org/wiki/Westchester_County_Airport,"Manhattan, New York City, NYC"
30683,3590,KHQM,medium_airport,Bowerman Airport,46.9711990356,-123.93699646,18.0,,US,US-WA,Hoquiam,no,KHQM,HQM,HQM,http://www.portofgraysharbor.com/airport/airport.php,https://en.wikipedia.org/wiki/Bowerman_Airport,
30688,3591,KHRL,medium_airport,Valley International Airport,26.228500366210934,-97.65440368652344,36.0,,US,US-TX,Harlingen,yes,KHRL,HRL,HRL,,https://en.wikipedia.org/wiki/Valley_International_Airport,
30689,3592,KHRO,medium_airport,Boone County Airport,36.26150131225586,-93.15470123291016,1365.0,,US,US-AR,Harrison,yes,KHRO,HRO,HRO,,https://en.wikipedia.org/wiki/Boone_County_Airport,
30701,3593,KHST,medium_airport,Homestead ARB Airport,25.48859978,-80.38359833,5.0,,US,US-FL,Homestead,no,KHST,HST,HST,http://www.homestead.afrc.af.mil/,https://en.wikipedia.org/wiki/Homestead_Air_Reserve_Base,Dade County Airport
30708,3596,KHUA,medium_airport,Redstone Army Air Field,34.67869949,-86.68479919,684.0,,US,US-AL,Redstone Arsnl Huntsville,no,KHUA,HUA,HUA,,https://en.wikipedia.org/wiki/Redstone_Army_Airfield,
30709,3597,KHUF,medium_airport,"Terre Haute Regional Airport, Hulman Field",39.4515,-87.307602,589.0,,US,US-IN,Terre Haute,no,KHUF,HUF,HUF,http://huf.com/,https://en.wikipedia.org/wiki/Terre_Haute_Regional_Airport,
30710,20095,KHUL,medium_airport,Houlton International Airport,46.123100280799996,-67.79209899899999,489.0,,US,US-ME,Houlton,no,KHUL,HUL,HUL,,https://en.wikipedia.org/wiki/Houlton_International_Airport,Houlton AAF
30712,3598,KHUT,medium_airport,Hutchinson Municipal Airport,38.0654983521,-97.86060333250002,1543.0,,US,US-KS,Hutchinson,no,KHUT,HUT,HUT,http://www.hutchgov.com/department/?fDD=20-0,https://en.wikipedia.org/wiki/Hutchinson_Municipal_Airport_(Kansas),
30715,3599,KHVN,medium_airport,Tweed New Haven Airport,41.26369858,-72.88680267,12.0,,US,US-CT,New Haven,yes,KHVN,HVN,HVN,,https://en.wikipedia.org/wiki/Tweed_New_Haven_Regional_Airport,
30716,20099,KHVR,medium_airport,Havre City County Airport,48.54299927,-109.762001,2591.0,,US,US-MT,Havre,no,KHVR,HVR,HVR,,,
30726,3600,KHYA,medium_airport,Barnstable Municipal Boardman Polando Field,41.66930008,-70.28040314,54.0,,US,US-MA,Hyannis,yes,KHYA,HYA,HYA,,https://en.wikipedia.org/wiki/Barnstable_Municipal_Airport,
30728,20108,KHYR,medium_airport,Sawyer County Airport,46.02519989010001,-91.44429779050002,1216.0,,US,US-WI,Hayward,no,KHYR,HYR,HYR,http://sawyercountygov.org/Departments/Airport/tabid/93/Default.aspx,https://en.wikipedia.org/wiki/Sawyer_County_Airport,
30729,20109,KHYS,medium_airport,Hays Regional Airport,38.84220123,-99.27320099,1999.0,,US,US-KS,Hays,no,KHYS,HYS,HYS,,https://en.wikipedia.org/wiki/Hays_Regional_Airport,
30771,3601,KIAB,medium_airport,Mc Connell Air Force Base,37.62189865,-97.26820374,1371.0,,US,US-KS,Wichita,no,KIAB,IAB,IAB,http://public.mcconnell.amc.af.mil/,https://en.wikipedia.org/wiki/McConnell_Air_Force_Base,"22nd Air Refueling Wing, 931st Air Refueling Group, 184th Intelligence Wing"
30773,3603,KIAG,medium_airport,Niagara Falls International Airport,43.1072998046875,-78.94619750976562,589.0,,US,US-NY,Niagara Falls,no,KIAG,IAG,IAG,,https://en.wikipedia.org/wiki/Niagara_Falls_International_Airport,
30780,3606,KIDA,medium_airport,Idaho Falls Regional Airport,43.514599,-112.070999,4744.0,,US,US-ID,Idaho Falls,yes,KIDA,IDA,IDA,,https://en.wikipedia.org/wiki/Idaho_Falls_Regional_Airport,Fanning Field
30797,3607,KIKK,medium_airport,Greater Kankakee Airport,41.07139968869999,-87.84629821780001,630.0,,US,US-IL,Kankakee,no,KIKK,IKK,IKK,http://kvaa.com/,https://en.wikipedia.org/wiki/Greater_Kankakee_Airport,
30801,3608,KILG,medium_airport,New Castle Airport,39.67869949,-75.60649872,80.0,,US,US-DE,Wilmington,yes,KILG,ILG,ILG,,https://en.wikipedia.org/wiki/New_Castle_Airport,
30803,3609,KILM,medium_airport,Wilmington International Airport,34.27059936523437,-77.90260314941406,32.0,,US,US-NC,Wilmington,yes,KILM,ILM,ILM,,https://en.wikipedia.org/wiki/Wilmington_International_Airport,
30804,20173,KILN,medium_airport,Wilmington Airpark,39.427898407,-83.79209899899999,1077.0,,US,US-OH,Wilmington,no,KILN,ILN,ILN,http://www.wilmingtonairpark.com/,https://en.wikipedia.org/wiki/Airborne_Airpark,"Clinton Field, Clinton County AFB, Airborne Airpark"
30812,3611,KINK,medium_airport,Winkler County Airport,31.779600143400003,-103.20099639899999,2822.0,,US,US-TX,Wink,no,KINK,INK,INK,http://www.co.winkler.tx.us/default.aspx?Winkler_County/County.Airport,https://en.wikipedia.org/wiki/Winkler_County_Airport,
30813,3612,KINL,medium_airport,Falls International Airport,48.566200256347656,-93.4030990600586,1185.0,,US,US-MN,International Falls,yes,KINL,INL,INL,,https://en.wikipedia.org/wiki/Falls_International_Airport,
30815,3613,KINT,medium_airport,Smith Reynolds Airport,36.13370132446289,-80.22200012207031,969.0,,US,US-NC,Winston Salem,no,KINT,INT,INT,,https://en.wikipedia.org/wiki/Smith_Reynolds_Airport,
30816,20180,KINW,medium_airport,Winslow Lindbergh Regional Airport,35.021900177,-110.722999573,4941.0,,US,US-AZ,Winslow,no,KINW,INW,INW,,https://en.wikipedia.org/wiki/Winslow-Lindbergh_Regional_Airport,
30820,20184,KIPL,medium_airport,Imperial County Airport,32.834201812699995,-115.57900238,-54.0,,US,US-CA,Imperial,no,KIPL,IPL,IPL,,https://en.wikipedia.org/wiki/Imperial_County_Airport,
30821,3614,KIPT,medium_airport,Williamsport Regional Airport,41.241798400878906,-76.92109680175781,529.0,,US,US-PA,Williamsport,yes,KIPT,IPT,IPT,,https://en.wikipedia.org/wiki/Williamsport_Regional_Airport,
30823,3615,KIRK,medium_airport,Kirksville Regional Airport,40.09349822998047,-92.5448989868164,966.0,,US,US-MO,Kirksville,yes,KIRK,IRK,IRK,,https://en.wikipedia.org/wiki/Kirksville_Regional_Airport,
30826,20187,KISM,medium_airport,Kissimmee Gateway Airport,28.289800643899998,-81.43710327149999,82.0,,US,US-FL,Orlando,no,KISM,ISM,ISM,http://www.kissimmee.org/index.aspx?page=111,https://en.wikipedia.org/wiki/Kissimmee_Gateway_Airport,
30828,20189,KISO,medium_airport,Kinston Regional Jetport At Stallings Field,35.331401825,-77.60880279540002,93.0,,US,US-NC,Kinston,no,KISO,ISO,ISO,http://www.jetkinston.com/,https://en.wikipedia.org/wiki/Kinston_Regional_Jetport,
30829,3616,KISP,medium_airport,Long Island Mac Arthur Airport,40.79520035,-73.10019684,99.0,,US,US-NY,Islip,yes,KISP,ISP,ISP,,https://en.wikipedia.org/wiki/Long_Island_MacArthur_Airport,
30833,20193,KITH,medium_airport,Ithaca Tompkins Regional Airport,42.49100112915039,-76.4583969116211,1099.0,,US,US-NY,Ithaca,yes,KITH,ITH,ITH,,https://en.wikipedia.org/wiki/Ithaca_Tompkins_Regional_Airport,
30835,3617,KIWA,medium_airport,Phoenix-Mesa-Gateway Airport,33.30780029,-111.65499879999999,1382.0,,US,US-AZ,Phoenix,no,KIWA,AZA,IWA,http://www.flywga.org/,https://en.wikipedia.org/wiki/Williams_Gateway_Airport,"Phoenix-Mesa Gateway Airport, Williams Gateway Airport, CHD"
30846,3618,KJAC,medium_airport,Jackson Hole Airport,43.6072998046875,-110.73799896240234,6451.0,,US,US-WY,Jackson,yes,KJAC,JAC,JAC,,https://en.wikipedia.org/wiki/Jackson_Hole_Airport,
30851,3621,KJBR,medium_airport,Jonesboro Municipal Airport,35.83169937133789,-90.64640045166016,262.0,,US,US-AR,Jonesboro,yes,KJBR,JBR,JBR,,https://en.wikipedia.org/wiki/Jonesboro_Municipal_Airport,
30852,20205,KJCT,medium_airport,Kimble County Airport,30.5112991333,-99.76349639889999,1749.0,,US,US-TX,Junction,no,KJCT,JCT,JCT,,,
30862,20213,KJHW,medium_airport,Chautauqua County-Jamestown Airport,42.15340042,-79.25800323,1723.0,,US,US-NY,Jamestown,no,KJHW,JHW,JHW,,https://en.wikipedia.org/wiki/Chautauqua_County-Jamestown_Airport,
30868,3624,KJMS,medium_airport,Jamestown Regional Airport,46.92969894,-98.67819977,1500.0,,US,US-ND,Jamestown,yes,KJMS,JMS,JMS,,https://en.wikipedia.org/wiki/Jamestown_Regional_Airport,
30874,3625,KJST,medium_airport,John Murtha Johnstown Cambria County Airport,40.31610107421875,-78.83390045166016,2284.0,,US,US-PA,Johnstown,yes,KJST,JST,JST,,https://en.wikipedia.org/wiki/Johnstown-Cambria_County_Airport,
30883,3626,KJXN,medium_airport,Jackson County Reynolds Field,42.2597999573,-84.45939636230001,1001.0,,US,US-MI,Jackson,no,KJXN,JXN,JXN,http://www.co.jackson.mi.us/airport/,https://en.wikipedia.org/wiki/Jackson_County_Airport_(Michigan),
30928,20277,KKLS,medium_airport,Southwest Washington Regional Airport,46.11800003049999,-122.898002625,20.0,,US,US-WA,Kelso,no,KKLS,KLS,KLS,http://www.kelso.gov/Departments%20%2526%20Services/Airport,https://en.wikipedia.org/wiki/Southwest_Washington_Regional_Airport,"Molt Taylor Field, Kelso-Longview Regional"
30966,3627,KLAF,medium_airport,Purdue University Airport,40.41230010986328,-86.93689727783203,606.0,,US,US-IN,Lafayette,no,KLAF,LAF,LAF,,https://en.wikipedia.org/wiki/Purdue_University_Airport,
30967,3628,KLAL,medium_airport,Lakeland Linder International Airport,27.988899,-82.018602,142.0,,US,US-FL,Lakeland,no,KLAL,LAL,LAL,,https://en.wikipedia.org/wiki/Lakeland_Linder_Regional_Airport,
30969,3629,KLAN,medium_airport,Capital City Airport,42.77870178222656,-84.58740234375,861.0,,US,US-MI,Lansing,yes,KLAN,LAN,LAN,,https://en.wikipedia.org/wiki/Lansing_Capital_City_Airport,
30970,3630,KLAR,medium_airport,Laramie Regional Airport,41.31209945678711,-105.6750030517578,7284.0,,US,US-WY,Laramie,yes,KLAR,LAR,LAR,,https://en.wikipedia.org/wiki/Laramie_Regional_Airport,
30972,20319,KLAW,medium_airport,Lawton Fort Sill Regional Airport,34.5676994324,-98.4166030884,1110.0,,US,US-OK,Lawton,no,KLAW,LAW,LAW,,https://en.wikipedia.org/wiki/Lawton-Fort_Sill_Regional_Airport,
30975,3634,KLBE,medium_airport,Arnold Palmer Regional Airport,40.27590179,-79.40480042,1199.0,,US,US-PA,Latrobe,yes,KLBE,LBE,LBE,,https://en.wikipedia.org/wiki/Arnold_Palmer_Regional_Airport,
30976,3635,KLBF,medium_airport,North Platte Regional Airport Lee Bird Field,41.12620163,-100.6839981,2777.0,,US,US-NE,North Platte,yes,KLBF,LBF,LBF,,https://en.wikipedia.org/wiki/North_Platte_Regional_Airport,
30977,3636,KLBL,medium_airport,Liberal Mid-America Regional Airport,37.04420089999999,-100.95999909999999,2885.0,,US,US-KS,Liberal,yes,KLBL,LBL,LBL,,https://en.wikipedia.org/wiki/Liberal_Municipal_Airport,
30980,20322,KLBT,medium_airport,Lumberton Regional Airport,34.609901428200004,-79.05940246579998,126.0,,US,US-NC,Lumberton,no,KLBT,LBT,LBT,http://www.lumbertonmunicipalairport.com/default.htm,https://en.wikipedia.org/wiki/Lumberton_Municipal_Airport,
30981,20323,KLBX,medium_airport,Texas Gulf Coast Regional Airport,29.108601,-95.462097,25.0,,US,US-TX,Angleton,no,KLBX,LJN,LBX,http://www.flylbx.org/,https://en.wikipedia.org/wiki/Texas_Gulf_Coast_Regional_Airport,Texas Gulf Coast Regional Airport
30983,3637,KLCH,medium_airport,Lake Charles Regional Airport,30.12610054016113,-93.22329711914062,15.0,,US,US-LA,Lake Charles,yes,KLCH,LCH,LCH,,https://en.wikipedia.org/wiki/Lake_Charles_Regional_Airport,
30989,3639,KLEB,medium_airport,Lebanon Municipal Airport,43.626098632799994,-72.30419921880002,603.0,,US,US-NH,Lebanon,yes,KLEB,LEB,LEB,http://flyleb.com/,https://en.wikipedia.org/wiki/Lebanon_Municipal_Airport_(New_Hampshire),
30990,20329,KLEE,medium_airport,Leesburg International Airport,28.82309914,-81.80870056,76.0,,US,US-FL,Leesburg,no,KLEE,LEE,LEE,http://www.leesburgflorida.gov/index.aspx?page=45,https://en.wikipedia.org/wiki/Leesburg_International_Airport,Leesburg AAF
30995,20332,KLFK,medium_airport,Angelina County Airport,31.2339992523,-94.75,296.0,,US,US-TX,Lufkin,no,KLFK,LFK,LFK,http://www.angelinacounty.net/departments/airport,https://en.wikipedia.org/wiki/Angelina_County_Airport,
30998,3644,KLGB,medium_airport,Long Beach Airport (Daugherty Field),33.817699,-118.152,60.0,,US,US-CA,Long Beach,yes,KLGB,LGB,LGB,http://www.lgb.org/,https://en.wikipedia.org/wiki/Long_Beach_Airport,Daugherty Field
31002,20337,KLGU,medium_airport,Logan-Cache Airport,41.7911987305,-111.851997375,4457.0,,US,US-UT,Logan,no,KLGU,LGU,LGU,http://logan-cacheairport.org/,https://en.wikipedia.org/wiki/Logan-Cache_Airport,
31027,3646,KLMT,medium_airport,Crater Lake-Klamath Regional Airport,42.156101,-121.733002,4095.0,,US,US-OR,Klamath Falls,yes,KLMT,LMT,LMT,,https://en.wikipedia.org/wiki/Klamath_Falls_Airport,Klamath Falls Airport
31030,20359,KLND,medium_airport,Hunt Field,42.8152008057,-108.730003357,5586.0,,US,US-WY,Lander,no,KLND,LND,LND,,,
31031,3647,KLNK,medium_airport,Lincoln Airport,40.85100173950195,-96.75920104980469,1219.0,,US,US-NE,Lincoln,yes,KLNK,LNK,LNK,http://www.lincolnairport.com/,https://en.wikipedia.org/wiki/Lincoln_Airport_%28Nebraska%29,"Lincoln Army Air Field, Lincoln Air Force Base, 155th Air Refueling Wing"
31036,3648,KLNS,medium_airport,Lancaster Airport,40.12170028686523,-76.29609680175781,403.0,,US,US-PA,Lancaster,yes,KLNS,LNS,LNS,,https://en.wikipedia.org/wiki/Lancaster_Airport_(Pennsylvania),
31037,20364,KLOL,medium_airport,Derby Field,40.0663986206,-118.565002441,3904.0,,US,US-NV,Lovelock,no,KLOL,LOL,LOL,http://pershingcounty.net/index.php/Derby-Field-Airport/derby-field-airport.html,https://en.wikipedia.org/wiki/Derby_Field,
31040,3649,KLOU,medium_airport,Bowman Field,38.2280006409,-85.6636962891,546.0,,US,US-KY,Louisville,no,KLOU,LOU,LOU,http://www.flylouisville.com/bowman-field/fast-facts/,https://en.wikipedia.org/wiki/Bowman_Field_(airport),
31041,3650,KLOZ,medium_airport,London-Corbin Airport/Magee Field,37.0821990967,-84.08489990230001,1212.0,,US,US-KY,London,no,KLOZ,LOZ,LOZ,http://www.london-corbinairport.com/,https://en.wikipedia.org/wiki/London-Corbin_Airport,
31046,3651,KLRD,medium_airport,Laredo International Airport,27.543800354003906,-99.46160125732422,508.0,,US,US-TX,Laredo,yes,KLRD,LRD,LRD,,https://en.wikipedia.org/wiki/Laredo_International_Airport,
31047,3652,KLRF,medium_airport,Little Rock Air Force Base,34.916900634799994,-92.14969635010002,311.0,,US,US-AR,Jacksonville,no,KLRF,LRF,LRF,http://www.littlerock.af.mil/,https://en.wikipedia.org/wiki/Little_Rock_Air_Force_Base,
31051,3653,KLRU,medium_airport,Las Cruces International Airport,32.28939819335937,-106.9219970703125,4456.0,,US,US-NM,Las Cruces,no,KLRU,LRU,LRU,,https://en.wikipedia.org/wiki/Las_Cruces_International_Airport,
31054,3654,KLSE,medium_airport,La Crosse Municipal Airport,43.879002,-91.256699,655.0,,US,US-WI,La Crosse,yes,KLSE,LSE,LSE,http://www.lseairport.com/,https://en.wikipedia.org/wiki/La_Crosse_Municipal_Airport,"airport, regional"
31055,3655,KLSF,medium_airport,Lawson Army Air Field (Fort Benning),32.337299346900004,-84.9913024902,232.0,,US,US-GA,Fort Benning(Columbus),no,KLSF,LSF,LSF,,https://en.wikipedia.org/wiki/Lawson_Army_Airfield,
31058,3656,KLSV,medium_airport,Nellis Air Force Base,36.2361984253,-115.03399658200001,1870.0,,US,US-NV,Las Vegas,no,KLSV,LSV,LSV,http://www.nellis.af.mil/,https://en.wikipedia.org/wiki/Nellis_Air_Force_Base,"McCarran Field, Las Vegas AAF, Las Vegas AFB"
31064,3659,KLUK,medium_airport,Cincinnati Municipal Airport Lunken Field,39.10329819,-84.41860199,483.0,,US,US-OH,Cincinnati,no,KLUK,LUK,LUK,,https://en.wikipedia.org/wiki/Cincinnati_Municipal_Airport,
31071,20386,KLVM,medium_airport,Mission Field,45.6994018555,-110.44799804700001,4660.0,,US,US-MT,Livingston,no,KLVM,LVM,LVM,http://www.parkcounty.org/site/Air_M_1.html#mf,https://en.wikipedia.org/wiki/Mission_Field,
31073,20388,KLVS,medium_airport,Las Vegas Municipal Airport,35.6542015076,-105.14199829100001,6877.0,,US,US-NM,Las Vegas,no,KLVS,LVS,LVS,http://www.lasvegasnm.gov/business/municipal_airport/index.php,https://en.wikipedia.org/wiki/Las_Vegas_Municipal_Airport,
31075,20390,KLWB,medium_airport,Greenbrier Valley Airport,37.8582992554,-80.3994979858,2302.0,,US,US-WV,Lewisburg,no,KLWB,LWB,LWB,,https://en.wikipedia.org/wiki/Greenbrier_Valley_Airport,
31078,3660,KLWM,medium_airport,Lawrence Municipal Airport,42.7172012329,-71.1233978271,148.0,,US,US-MA,Lawrence,no,KLWM,LWM,LWM,http://www.lawrencemunicipalairport.com/,https://en.wikipedia.org/wiki/Lawrence_Municipal_Airport_(Massachusetts),
31079,20393,KLWS,medium_airport,Lewiston Nez Perce County Airport,46.3745002746582,-117.01499938964844,1442.0,,US,US-ID,Lewiston,yes,KLWS,LWS,LWS,,https://en.wikipedia.org/wiki/Lewiston-Nez_Perce_County_Airport,
31080,3661,KLWT,medium_airport,Lewistown Municipal Airport,47.04930114746094,-109.46700286865234,4170.0,,US,US-MT,Lewistown,yes,KLWT,LWT,LWT,,https://en.wikipedia.org/wiki/Lewistown_Municipal_Airport,
31087,3662,KLYH,medium_airport,Lynchburg Regional Preston Glenn Field,37.326698303222656,-79.20040130615234,938.0,,US,US-VA,Lynchburg,yes,KLYH,LYH,LYH,,https://en.wikipedia.org/wiki/Lynchburg_Regional_Airport,
31159,3663,KMAF,medium_airport,Midland International Airport,31.9424991607666,-102.2020034790039,2871.0,,US,US-TX,Midland,yes,KMAF,MAF,MAF,,https://en.wikipedia.org/wiki/Midland_International_Airport,
31165,20474,KMBG,medium_airport,Mobridge Municipal Airport,45.54650116,-100.40799709999999,1716.0,,US,US-SD,Mobridge,no,KMBG,MBG,MBG,,https://en.wikipedia.org/wiki/Mobridge_Municipal_Airport,
31171,3665,KMCB,medium_airport,McComb-Pike County Airport / John E Lewis Field,31.178499,-90.471901,413.0,,US,US-MS,McComb,no,KMCB,MCB,MCB,,https://en.wikipedia.org/wiki/McComb%E2%80%93Pike_County_Airport,
31172,3666,KMCC,medium_airport,Mc Clellan Airfield,38.66759872,-121.40100100000001,77.0,,US,US-CA,Sacramento,no,KMCC,MCC,MCC,,https://en.wikipedia.org/wiki/McClellan_Airfield,McClellan AFB
31174,20480,KMCE,medium_airport,Merced Regional Macready Field,37.28469849,-120.5139999,155.0,,US,US-CA,Merced,no,KMCE,MCE,MCE,,https://en.wikipedia.org/wiki/Merced_Regional_Airport,
31177,20481,KMCK,medium_airport,Mc Cook Ben Nelson Regional Airport,40.20629883,-100.59200290000001,2583.0,,US,US-NE,Mc Cook,no,KMCK,MCK,MCK,,https://en.wikipedia.org/wiki/McCook_Regional_Airport,
31178,3669,KMCN,medium_airport,Middle Georgia Regional Airport,32.692798614501946,-83.64920043945312,354.0,,US,US-GA,Macon,yes,KMCN,MCN,MCN,,https://en.wikipedia.org/wiki/Middle_Georgia_Regional_Airport,
31180,20482,KMCW,medium_airport,Mason City Municipal Airport,43.15779876710001,-93.33129882809999,1213.0,,US,US-IA,Mason City,no,KMCW,MCW,MCW,,,
31186,3671,KMDH,medium_airport,Southern Illinois Airport,37.778099060058594,-89.25199890136719,411.0,,US,US-IL,Carbondale/Murphysboro,no,KMDH,MDH,MDH,,https://en.wikipedia.org/wiki/Southern_Illinois_Airport,
31189,3672,KMDT,medium_airport,Harrisburg International Airport,40.1935005188,-76.7633972168,310.0,,US,US-PA,Harrisburg,yes,KMDT,MDT,MDT,http://www.flyhia.com/,https://en.wikipedia.org/wiki/Harrisburg_International_Airport,"Harrisburg,Lancaster,York,HIA,Middletown"
31193,3674,KMEI,medium_airport,Key Field,32.33259963989258,-88.75189971923828,297.0,,US,US-MS,Meridian,yes,KMEI,MEI,MEI,,https://en.wikipedia.org/wiki/Meridian_Regional_Airport,
31196,3676,KMER,medium_airport,Castle Airport,37.38050079,-120.5680008,191.0,,US,US-CA,Merced,no,KMER,MER,MER,,https://en.wikipedia.org/wiki/Castle_Airport,
31201,3677,KMFD,medium_airport,Mansfield Lahm Regional Airport,40.82139968869999,-82.5166015625,1297.0,,US,US-OH,Mansfield,no,KMFD,MFD,MFD,http://www.ci.mansfield.oh.us/index.php/lahm-airport,https://en.wikipedia.org/wiki/Mansfield_Lahm_Regional_Airport,
31202,3678,KMFE,medium_airport,Mc Allen Miller International Airport,26.17580032,-98.23860168,107.0,,US,US-TX,Mc Allen,yes,KMFE,MFE,MFE,,https://en.wikipedia.org/wiki/McAllen-Miller_International_Airport,
31204,3679,KMFR,medium_airport,Rogue Valley International Medford Airport,42.37419891357422,-122.8730010986328,1335.0,,US,US-OR,Medford,yes,KMFR,MFR,MFR,,https://en.wikipedia.org/wiki/Rogue_Valley_International-Medford_Airport,
31213,3682,KMGW,medium_airport,Morgantown Municipal Walter L. Bill Hart Field,39.64289856,-79.91629791,1248.0,,US,US-WV,Morgantown,yes,KMGW,MGW,MGW,,https://en.wikipedia.org/wiki/Morgantown_Municipal_Airport,
31216,3683,KMHK,medium_airport,Manhattan Regional Airport,39.14099884033203,-96.6707992553711,1057.0,,US,US-KS,Manhattan,yes,KMHK,MHK,MHK,,https://en.wikipedia.org/wiki/Manhattan_Regional_Airport,
31219,20506,KMHR,medium_airport,Sacramento Mather Airport,38.55390167,-121.29799650000001,98.0,,US,US-CA,Sacramento,no,KMHR,MHR,MHR,http://www.sacramento.aero/mhr/,https://en.wikipedia.org/wiki/Sacramento_Mather_Airport,
31223,3686,KMIB,medium_airport,Minot Air Force Base,48.4156,-101.358002,1667.0,,US,US-ND,Minot,no,KMIB,MIB,MIB,http://www.minot.af.mil/,https://en.wikipedia.org/wiki/Minot_Air_Force_Base,"5th Bomb Wing, 91st Space Wing"
31225,3687,KMIE,medium_airport,Delaware County Johnson Field,40.2422981262207,-85.3958969116211,937.0,,US,US-IN,Muncie,no,KMIE,MIE,MIE,,https://en.wikipedia.org/wiki/Delaware_County_Airport,
31228,3688,KMIV,medium_airport,Millville Municipal Airport,39.367802000000005,-75.072197,85.0,,US,US-NJ,Millville,no,KMIV,MIV,MIV,,https://en.wikipedia.org/wiki/Millville_Executive_Airport,
31234,3689,KMKC,medium_airport,Charles B. Wheeler Downtown Airport,39.12319946289063,-94.5927963256836,759.0,,US,US-MO,Kansas City,no,KMKC,MKC,MKC,,https://en.wikipedia.org/wiki/Charles_B._Wheeler_Downtown_Airport,
31236,3691,KMKG,medium_airport,Muskegon County Airport,43.169498,-86.238197,629.0,,US,US-MI,Muskegon,yes,KMKG,MKG,MKG,,https://en.wikipedia.org/wiki/Muskegon_County_Airport,
31238,3692,KMKL,medium_airport,McKellar-Sipes Regional Airport,35.599899,-88.915604,434.0,,US,US-TN,Jackson,yes,KMKL,MKL,MKL,http://mckellarsipes.com/,https://en.wikipedia.org/wiki/McKellar-Sipes_Regional_Airport,
31245,3693,KMLB,medium_airport,Melbourne International Airport,28.10280036926269,-80.64530181884766,33.0,,US,US-FL,Melbourne,yes,KMLB,MLB,MLB,,https://en.wikipedia.org/wiki/Melbourne_International_Airport,
31246,3694,KMLC,medium_airport,Mc Alester Regional Airport,34.882401,-95.783501,770.0,,US,US-OK,Mc Alester,no,KMLC,MLC,MLC,,https://en.wikipedia.org/wiki/McAlester_Regional_Airport,
31253,3696,KMLS,medium_airport,Frank Wiley Field,46.428001403808594,-105.88600158691406,2630.0,,US,US-MT,Miles City,yes,KMLS,MLS,MLS,,https://en.wikipedia.org/wiki/Miles_City_Municipal_Airport,
31262,20532,KMMT,medium_airport,Mc Entire Joint National Guard Base,33.92079926,-80.80130005,254.0,,US,US-SC,Eastover,no,KMMT,MMT,MMT,,https://en.wikipedia.org/wiki/McEntire_Joint_National_Guard_Base,
31263,3698,KMMU,medium_airport,Morristown Municipal Airport,40.799400329589844,-74.41490173339844,187.0,,US,US-NJ,Morristown,no,KMMU,MMU,MMU,,https://en.wikipedia.org/wiki/Morristown_Municipal_Airport,"Manhattan, New York City, NYC"
31277,3701,KMOD,medium_airport,Modesto City Co-Harry Sham Field,37.62580109,-120.9540024,97.0,,US,US-CA,Modesto,yes,KMOD,MOD,MOD,,https://en.wikipedia.org/wiki/Modesto_City-County_Airport,
31280,3702,KMOT,medium_airport,Minot International Airport,48.2593994140625,-101.27999877929688,1716.0,,US,US-ND,Minot,yes,KMOT,MOT,MOT,,https://en.wikipedia.org/wiki/Minot_International_Airport,
31288,20551,KMPV,medium_airport,Edward F Knapp State Airport,44.20349884,-72.56230164,1166.0,,US,US-VT,Barre/Montpelier,no,KMPV,MPV,MPV,,https://en.wikipedia.org/wiki/Edward_F._Knapp_State_Airport,
31296,3703,KMQY,medium_airport,Smyrna Airport,36.0089988708,-86.52010345459999,543.0,,US,US-TN,Smyrna,no,KMQY,MQY,MQY,http://www.smyrnaairport.com/,https://en.wikipedia.org/wiki/Smyrna_Airport_(Tennessee),Sewart AFB
31297,3704,KMRB,medium_airport,Eastern WV Regional Airport/Shepherd Field,39.40190125,-77.98459625,565.0,,US,US-WV,Martinsburg,no,KMRB,MRB,MRB,http://www.wvairport.org/,https://en.wikipedia.org/wiki/Eastern_WV_Regional_Airport,
31304,3705,KMRY,medium_airport,Monterey Peninsula Airport,36.58700180053711,-121.84300231933594,257.0,,US,US-CA,Monterey,yes,KMRY,MRY,MRY,,https://en.wikipedia.org/wiki/Monterey_Peninsula_Airport,
31306,3706,KMSL,medium_airport,Northwest Alabama Regional Airport,34.74530029,-87.61019897,551.0,,US,US-AL,Muscle Shoals,yes,KMSL,MSL,MSL,,https://en.wikipedia.org/wiki/Northwest_Alabama_Regional_Airport,
31308,3708,KMSO,medium_airport,Missoula International Airport,46.91630173,-114.0910034,3206.0,,US,US-MT,Missoula,yes,KMSO,MSO,MSO,,https://en.wikipedia.org/wiki/Missoula_International_Airport,
31310,3710,KMSS,medium_airport,Massena International Richards Field,44.93579864501953,-74.84559631347656,215.0,,US,US-NY,Massena,yes,KMSS,MSS,MSS,http://www.massenaworks.com/town/airport.asp,https://en.wikipedia.org/wiki/Massena_International_Airport,
31314,3712,KMTC,medium_airport,Selfridge Air National Guard Base Airport,42.613463,-82.836919,580.0,,US,US-MI,Mount Clemens,no,KMTC,MTC,MTC,,https://en.wikipedia.org/wiki/Selfridge_Air_National_Guard_Base,
31315,20564,KMTH,medium_airport,The Florida Keys Marathon Airport,24.726101,-81.051399,5.0,,US,US-FL,Marathon,no,KMTH,MTH,MTH,http://marathonga.com/,https://en.wikipedia.org/wiki/Florida_Keys_Marathon_Airport,
31316,20565,KMTJ,medium_airport,Montrose Regional Airport,38.5097999573,-107.89399719200001,5759.0,,US,US-CO,Montrose,no,KMTJ,MTJ,MTJ,,,
31317,3713,KMTN,medium_airport,Martin State Airport,39.325699,-76.413803,21.0,,US,US-MD,Baltimore,no,KMTN,MTN,MTN,,https://en.wikipedia.org/wiki/Martin_State_Airport,
31323,3714,KMUI,medium_airport,Muir Army Air Field (Fort Indiantown Gap) Airport,40.434799,-76.569397,488.0,,US,US-PA,Fort Indiantown Gap(Annville),no,KMUI,MUI,MUI,,https://en.wikipedia.org/wiki/Muir_Army_Airfield,
31337,20581,KMWH,medium_airport,Grant County International Airport,47.20769882,-119.3199997,1189.0,,US,US-WA,Moses Lake,no,KMWH,MWH,MWH,http://www.portofmoseslake.com/the-center-of-washington-aviation/,https://en.wikipedia.org/wiki/Grant_County_International_Airport,"LRN, Larson AFB, Moses Lake AFB, Moses Lake AAB"
31343,3716,KMXF,medium_airport,Maxwell Air Force Base,32.3829,-86.365799,171.0,,US,US-AL,Montgomery,no,KMXF,MXF,MXF,,https://en.wikipedia.org/wiki/Maxwell_Air_Force_Base,
31348,20591,KMYL,medium_airport,McCall Municipal Airport,44.88970184,-116.10099790000001,5024.0,,US,US-ID,McCall,no,KMYL,MYL,MYL,http://www.mccall.id.us/services/airport.html,https://en.wikipedia.org/wiki/McCall_Municipal_Airport,
31349,3717,KMYR,medium_airport,Myrtle Beach International Airport,33.6796989441,-78.9282989502,25.0,,US,US-SC,Myrtle Beach,yes,KMYR,MYR,MYR,,https://en.wikipedia.org/wiki/Myrtle_Beach_International_Airport,
31350,3718,KMYV,medium_airport,Yuba County Airport,39.09780121,-121.5699997,64.0,,US,US-CA,Marysville,no,KMYV,MYV,MYV,http://www.yubacoairport.com/,https://en.wikipedia.org/wiki/Yuba_County_Airport,Marysville AAF
31389,3720,KNBG,medium_airport,New Orleans NAS JRB/Alvin Callender Field,29.82530022,-90.03500366,2.0,,US,US-LA,New Orleans,no,KNBG,NBG,NBG,,https://en.wikipedia.org/wiki/Naval_Air_Station_Joint_Reserve_Base_New_Orleans,
31394,3722,KNEL,medium_airport,Lakehurst Maxfield Field Airport,40.03329849,-74.353302,101.0,,US,US-NJ,Lakehurst,no,KNEL,NEL,NEL,,https://en.wikipedia.org/wiki/Naval_Air_Engineering_Station_Lakehurst,"Maxfield Field, Hindenburg, Lakehurst NAES, Lakehurst Naval Air Engineering Station"
31396,3723,KNEW,medium_airport,Lakefront Airport,30.042400360107003,-90.02829742431601,8.0,,US,US-LA,New Orleans,no,KNEW,NEW,NEW,http://www.lakefrontairport.com/,https://en.wikipedia.org/wiki/New_Orleans_Lakefront_Airport,
31401,3725,KNFL,medium_airport,Fallon Naval Air Station,39.41659927,-118.70099640000001,3934.0,,US,US-NV,Fallon,no,KNFL,NFL,NFL,http://www.cnic.navy.mil/regions/cnrsw/installations/nas_fallon.html,https://en.wikipedia.org/wiki/Naval_Air_Station_Fallon,"Van Voorhis Field, Fallon NAS"
31402,20639,KNFW,medium_airport,NAS Fort Worth JRB/Carswell Field,32.76919937,-97.4414978,650.0,,US,US-TX,Fort Worth,no,KNFW,FWH,NFW,http://www.cnic.navy.mil/regions/cnrse/installations/nas_jrb_fort_worth.html,https://en.wikipedia.org/wiki/Naval_Air_Station_Joint_Reserve_Base_Fort_Worth,"Carswell AFB, Tarrant Field"
31405,3727,KNGU,medium_airport,Norfolk Naval Station (Chambers Field),36.937599,-76.289299,17.0,,US,US-VA,Norfolk,no,KNGU,NGU,NGU,,https://en.wikipedia.org/wiki/Naval_Station_Norfolk,
31408,3728,KNHK,medium_airport,Patuxent River Naval Air Station (Trapnell Field),38.285999,-76.41179699999999,39.0,,US,US-MD,Patuxent River,no,KNHK,NHK,NHK,,https://en.wikipedia.org/wiki/Naval_Air_Station_Patuxent_River,
31411,3729,KNHZ,medium_airport,Brunswick Executive Airport,43.89220047,-69.93859863,72.0,,US,US-ME,Brunswick,no,KBXM,NHZ,BXM,http://mrra.us/brunswick-executive-airport/,https://en.wikipedia.org/wiki/Brunswick_Executive_Airport,"KHNZ, Brunswick NAS"
31413,3730,KNIP,medium_airport,Jacksonville Naval Air Station (Towers Field),30.2358,-81.680603,21.0,,US,US-FL,Jacksonville,no,KNIP,NIP,NIP,,https://en.wikipedia.org/wiki/Naval_Air_Station_Jacksonville,
31414,3731,KNJK,medium_airport,El Centro NAF Airport (Vraciu Field),32.829201,-115.671996,-42.0,,US,US-CA,El Centro,no,KNJK,NJK,NJK,https://www.cnic.navy.mil/regions/cnrsw/installations/naf_el_centro.html,https://en.wikipedia.org/wiki/Naval_Air_Facility_El_Centro,"Naval Air Facility El Centro, MCAS El Centro"
31420,3733,KNKX,medium_airport,Miramar Marine Corps Air Station - Mitscher Field,32.86840057,-117.1429977,477.0,,US,US-CA,San Diego,no,KNKX,NKX,NKX,http://www.miramar.marines.mil/,https://en.wikipedia.org/wiki/Marine_Corps_Air_Station_Miramar,Miramar MCAS
31422,20647,KNLC,medium_airport,Lemoore Naval Air Station (Reeves Field) Airport,36.33300018,-119.95200349999999,232.0,,US,US-CA,Lemoore,no,KNLC,NLC,NLC,http://www.cnic.navy.mil/regions/cnrsw/installations/nas_lemoore.html,https://en.wikipedia.org/wiki/Naval_Air_Station_Lemoore,
31428,3735,KNPA,medium_airport,Pensacola Naval Air Station/Forrest Sherman Field,30.35269928,-87.31860352,28.0,,US,US-FL,Pensacola,no,KNPA,NPA,NPA,http://www.cnic.navy.mil/regions/cnrse/installations/nas_pensacola.html,https://en.wikipedia.org/wiki/Naval_Air_Station_Pensacola,"NAS, KNAS"
31430,3736,KNQA,medium_airport,Millington-Memphis Airport,35.356701,-89.8703,320.0,,US,US-TN,Millington,no,KNQA,NQA,NQA,https://millingtonairport.com/,https://en.wikipedia.org/wiki/Millington-Memphis_Airport,"Millington Municipal, NAS Memphis, Millington Regional Jetport"
31432,3737,KNQI,medium_airport,Kingsville Naval Air Station,27.5072002411,-97.8097000122,50.0,,US,US-TX,Kingsville,no,KNQI,NQI,NQI,http://www.cnic.navy.mil/regions/cnrse/installations/nas_kingsville.html,https://en.wikipedia.org/wiki/Naval_Air_Station_Kingsville,
31433,3738,KNQX,medium_airport,Naval Air Station Key West/Boca Chica Field,24.57579994,-81.68890381,6.0,,US,US-FL,Key West,no,KNQX,NQX,NQX,http://www.cnic.navy.mil/regions/cnrse/installations/nas_key_west.html,https://en.wikipedia.org/wiki/Naval_Air_Station_Key_West,
31435,20652,KNRB,medium_airport,Naval Station Mayport (Admiral David L. Mcdonald Field),30.39109993,-81.42469788,15.0,,US,US-FL,Mayport,no,KNRB,NRB,NRB,http://www.cnic.navy.mil/regions/cnrse/installations/ns_mayport.html,https://en.wikipedia.org/wiki/Naval_Station_Mayport,
31439,20656,KNSE,medium_airport,Whiting Field Naval Air Station - North,30.724199300000002,-87.02189636,199.0,,US,US-FL,Milton,no,KNSE,NSE,NSE,,https://en.wikipedia.org/wiki/Naval_Air_Station_Whiting_Field_%E2%80%93_North,
31442,3739,KNTD,medium_airport,Point Mugu Naval Air Station (Naval Base Ventura Co),34.120300293,-119.12100219700001,13.0,,US,US-CA,Point Mugu,no,KNTD,NTD,NTD,,https://en.wikipedia.org/wiki/Naval_Air_Station_Point_Mugu,
31444,3740,KNTU,medium_airport,Oceana Naval Air Station,36.820702000000004,-76.033501,23.0,,US,US-VA,Virginia Beach,no,KNTU,NTU,NTU,,https://en.wikipedia.org/wiki/Naval_Air_Station_Oceana,Apollo Soucek Field
31448,3741,KNUQ,medium_airport,Moffett Federal Airfield,37.4161,-122.04900400000001,32.0,,US,US-CA,Mountain View,no,KNUQ,NUQ,NUQ,,https://en.wikipedia.org/wiki/Moffett_Federal_Airfield,
31449,20661,KNUW,medium_airport,Whidbey Island Naval Air Station (Ault Field),48.351799,-122.655998,47.0,,US,US-WA,Oak Harbor,no,KNUW,NUW,NUW,,https://en.wikipedia.org/wiki/Naval_Air_Station_Whidbey_Island,
31458,3961,KNYL,medium_airport,Yuma MCAS/Yuma International Airport,32.65660095,-114.6060028,213.0,,US,US-AZ,Yuma,yes,KNYL,YUM,NYL,,https://en.wikipedia.org/wiki/Yuma_International_Airport,"Yuma MCAS, Yuma Marine Corps Air Station, Formerly KYUM"
31462,3743,KNZY,medium_airport,North Island Naval Air Station-Halsey Field,32.69919968,-117.2149963,26.0,,US,US-CA,San Diego,no,KNZY,NZY,NZY,,https://en.wikipedia.org/wiki/Naval_Air_Station_North_Island,
31500,20709,KOAJ,medium_airport,Albert J Ellis Airport,34.8292007446,-77.61209869380002,94.0,,US,US-NC,Jacksonville,no,KOAJ,OAJ,OAJ,,,
31515,3745,KOFF,medium_airport,Offutt Air Force Base,41.118301391602,-95.912498474121,1052.0,,US,US-NE,Omaha,no,KOFF,OFF,OFF,http://www.offutt.af.mil/,https://en.wikipedia.org/wiki/Offutt_Air_Force_Base,
31516,20722,KOFK,medium_airport,Karl Stefan Memorial Airport,41.985500335693004,-97.435096740723,1573.0,,US,US-NE,Norfolk,no,KOFK,OFK,OFK,http://www.norfolkairportservices.com/default.htm,https://en.wikipedia.org/wiki/Norfolk_Regional_Airport,
31519,20725,KOGB,medium_airport,Orangeburg Municipal Airport,33.456798553467,-80.859497070312,195.0,,US,US-SC,Orangeburg,no,KOGB,OGB,OGB,http://www.orangeburg.sc.us/index.php?option=com_content&view=article&id=18&Itemid=69,https://en.wikipedia.org/wiki/Orangeburg_Municipal_Airport,
31520,3746,KOGD,medium_airport,Ogden Hinckley Airport,41.195899963379,-112.0120010376,4473.0,,US,US-UT,Ogden,yes,KOGD,OGD,OGD,http://flyogden.com/,https://en.wikipedia.org/wiki/Ogden-Hinckley_Airport,
31539,20739,KOLF,medium_airport,L M Clayton Airport,48.0945014954,-105.57499694799999,1986.0,,US,US-MT,Wolf Point,no,KOLF,OLF,OLF,,https://en.wikipedia.org/wiki/L._M._Clayton_Airport,
31541,3749,KOLM,medium_airport,Olympia Regional Airport,46.9693985,-122.90299990000001,209.0,,US,US-WA,Olympia,no,KOLM,OLM,OLM,,https://en.wikipedia.org/wiki/Olympia_Airport,
31542,20741,KOLS,medium_airport,Nogales International Airport,31.4177,-110.848,3955.0,,US,US-AZ,Nogales,no,KOLS,OLS,OLS,,https://en.wikipedia.org/wiki/Nogales_International_Airport,
31556,20752,KONP,medium_airport,Newport Municipal Airport,44.580399,-124.057999,160.0,,US,US-OR,Newport,no,KONP,ONP,ONP,,https://en.wikipedia.org/wiki/Newport_Municipal_Airport_(Oregon),
31562,20757,KOPF,medium_airport,Miami-Opa Locka Executive Airport,25.906999999999996,-80.278397,8.0,,US,US-FL,Miami,no,KOPF,OPF,OPF,http://www.miami-airport.com/html/opalocka.html,https://en.wikipedia.org/wiki/Miami-Opa_Locka_Executive_Airport,
31566,3753,KOQU,medium_airport,Quonset State Airport,41.597099304199,-71.412101745605,18.0,,US,US-RI,North Kingstown,no,KOQU,NCO,OQU,,https://en.wikipedia.org/wiki/Quonset_State_Airport,Quonset Point NAS
31575,3756,KORH,medium_airport,Worcester Regional Airport,42.26729965209961,-71.87570190429688,1009.0,,US,US-MA,Worcester,no,KORH,ORH,ORH,,https://en.wikipedia.org/wiki/Worcester-Metrowest-Boston_Airport,
31581,3757,KOSH,medium_airport,Wittman Regional Airport,43.98440170288086,-88.55699920654297,808.0,,US,US-WI,Oshkosh,no,KOSH,OSH,OSH,http://www.wittmanairport.com/,https://en.wikipedia.org/wiki/Wittman_Regional_Airport,
31582,3758,KOSU,medium_airport,The Ohio State University Airport - Don Scott Field,40.0798,-83.072998,905.0,,US,US-OH,Columbus,no,KOSU,OSU,OSU,https://osuairport.org/,https://en.wikipedia.org/wiki/Ohio_State_University_Airport,
31585,3759,KOTH,medium_airport,Southwest Oregon Regional Airport,43.41709899902344,-124.24600219726562,17.0,,US,US-OR,North Bend,yes,KOTH,OTH,OTH,,https://en.wikipedia.org/wiki/Southwest_Oregon_Regional_Airport,
31586,3760,KOTM,medium_airport,Ottumwa Regional Airport,41.10660172,-92.44789886,845.0,,US,US-IA,Ottumwa,no,KOTM,OTM,OTM,,,
31594,3761,KOWB,medium_airport,Owensboro Daviess County Airport,37.74010086,-87.16680145,407.0,,US,US-KY,Owensboro,yes,KOWB,OWB,OWB,,https://en.wikipedia.org/wiki/Owensboro-Daviess_County_Regional_Airport,
31595,20777,KOWD,medium_airport,Norwood Memorial Airport,42.1904983521,-71.1728973389,49.0,,US,US-MA,Norwood,no,KOWD,OWD,OWD,http://www.ci.norwood.ma.us/Airport/Default.htm,https://en.wikipedia.org/wiki/Norwood_Memorial_Airport,
31604,20785,KOXR,medium_airport,Oxnard Airport,34.200801849365,-119.20700073241998,45.0,,US,US-CA,Oxnard,no,KOXR,OXR,OXR,,https://en.wikipedia.org/wiki/Oxnard_Airport,
31609,3762,KOZR,medium_airport,Cairns AAF (Fort Rucker) Air Field,31.27569962,-85.71340179,301.0,,US,US-AL,Fort Rucker/Ozark,no,KOZR,OZR,OZR,,https://en.wikipedia.org/wiki/Cairns_Army_Airfield,
31714,3763,KPAE,medium_airport,Snohomish County (Paine Field) Airport,47.90629959,-122.28199769999999,606.0,,US,US-WA,Everett,no,KPAE,PAE,PAE,,https://en.wikipedia.org/wiki/Paine_Field,
31715,3764,KPAH,medium_airport,Barkley Regional Airport,37.06079864501953,-88.7738037109375,410.0,,US,US-KY,Paducah,yes,KPAH,PAH,PAH,,https://en.wikipedia.org/wiki/Barkley_Regional_Airport,
31720,20807,KPBF,medium_airport,"Pine Bluff Regional Airport, Grider Field",34.1731,-91.9356,206.0,,US,US-AR,Pine Bluff,no,KPBF,PBF,PBF,http://www.pbaviation.com,https://en.wikipedia.org/wiki/Grider_Field,
31721,20808,KPBG,medium_airport,Plattsburgh International Airport,44.6509017944336,-73.46810150146484,234.0,,US,US-NY,Plattsburgh,yes,KPBG,PBG,PBG,http://www.plattsburghinternationalairport.com/,https://en.wikipedia.org/wiki/Plattsburgh_International_Airport,Plattsburgh Air Force Base
31731,3767,KPDK,medium_airport,DeKalb Peachtree Airport,33.8755989075,-84.3020019531,1003.0,,US,US-GA,Atlanta,no,KPDK,PDK,PDK,http://web.co.dekalb.ga.us/pdkairport/index.asp,https://en.wikipedia.org/wiki/DeKalb-Peachtree_Airport,
31732,20815,KPDT,medium_airport,Eastern Oregon Regional At Pendleton Airport,45.695098877,-118.84100341799999,1497.0,,US,US-OR,Pendleton,no,KPDT,PDT,PDT,,https://en.wikipedia.org/wiki/Eastern_Oregon_Regional_Airport,
31741,20821,KPGA,medium_airport,Page Municipal Airport,36.92610168,-111.447998,4316.0,,US,US-AZ,Page,no,KPGA,PGA,PGA,,https://en.wikipedia.org/wiki/Page_Municipal_Airport,
31744,20824,KPGV,medium_airport,Pitt Greenville Airport,35.6352005,-77.38529968,26.0,,US,US-NC,Greenville,no,KPGV,PGV,PGV,,https://en.wikipedia.org/wiki/Pitt-Greenville_Airport,
31757,3774,KPIB,medium_airport,Hattiesburg Laurel Regional Airport,31.467100143432614,-89.33709716796875,298.0,,US,US-MS,Hattiesburg/Laurel,yes,KPIB,PIB,PIB,,https://en.wikipedia.org/wiki/Hattiesburg-Laurel_Regional_Airport,
31758,3775,KPIE,medium_airport,St Petersburg Clearwater International Airport,27.91020012,-82.68740082,11.0,,US,US-FL,St Petersburg-Clearwater,yes,KPIE,PIE,PIE,,https://en.wikipedia.org/wiki/St._Petersburg-Clearwater_International_Airport,
31759,3776,KPIH,medium_airport,Pocatello Regional Airport,42.9098014831543,-112.59600067138672,4452.0,,US,US-ID,Pocatello,yes,KPIH,PIH,PIH,,https://en.wikipedia.org/wiki/Pocatello_Regional_Airport,
31762,3777,KPIR,medium_airport,Pierre Regional Airport,44.38270187,-100.2860031,1744.0,,US,US-SD,Pierre,yes,KPIR,PIR,PIR,,https://en.wikipedia.org/wiki/Pierre_Regional_Airport,
31766,3779,KPKB,medium_airport,Mid Ohio Valley Regional Airport,39.34510040283203,-81.43920135498047,858.0,,US,US-WV,Parkersburg,yes,KPKB,PKB,PKB,,https://en.wikipedia.org/wiki/Mid-Ohio_Valley_Regional_Airport,
31774,3781,KPLN,medium_airport,Pellston Regional Airport of Emmet County Airport,45.57089996,-84.79669952,721.0,,US,US-MI,Pellston,yes,KPLN,PLN,PLN,,https://en.wikipedia.org/wiki/Pellston_Regional_Airport,
31778,3782,KPMD,medium_airport,Palmdale Regional/USAF Plant 42 Airport,34.62939835,-118.08499909999999,2543.0,,US,US-CA,Palmdale,yes,KPMD,PMD,PMD,,https://en.wikipedia.org/wiki/LA/Palmdale_Regional_Airport,
31784,20848,KPNA,medium_airport,Ralph Wenz Field,42.79550171,-109.8069992,7102.0,,US,US-WY,Pinedale,no,KPNA,PWY,PNA,http://www.pinedaleonline.com/pinedaleairport.HTM,https://en.wikipedia.org/wiki/Ralph_Wenz_Field,
31785,20849,KPNC,medium_airport,Ponca City Regional Airport,36.73199844,-97.09980011,1008.0,,US,US-OK,Ponca City,no,KPNC,PNC,PNC,http://www.poncacityok.gov/index.aspx?nid=181,https://en.wikipedia.org/wiki/Ponca_City_Regional_Airport,
31786,20850,KPNE,medium_airport,Northeast Philadelphia Airport,40.081902,-75.010597,120.0,,US,US-PA,Philadelphia,yes,KPNE,PNE,PNE,http://www.phl.org/pne/pne.html,https://en.wikipedia.org/wiki/Northeast_Philadelphia_Airport,
31789,3783,KPNS,medium_airport,Pensacola International Airport,30.4734,-87.1866,121.0,,US,US-FL,Pensacola,yes,KPNS,PNS,PNS,http://www.flypensacola.com/,https://en.wikipedia.org/wiki/Pensacola_Regional_Airport,
31791,3784,KPOB,medium_airport,Pope Field,35.1708984375,-79.014503479004,217.0,,US,US-NC,Fayetteville,no,KPOB,POB,POB,http://www.pope.af.mil/,https://en.wikipedia.org/wiki/Pope_Field,Pope AFB
31793,3785,KPOE,medium_airport,Polk Army Air Field,31.044799800000003,-93.1917038,330.0,,US,US-LA,Fort Polk,no,KPOE,POE,POE,http://www.jrtc-polk.army.mil/,,
31796,3786,KPOU,medium_airport,Dutchess County Airport,41.6265983581543,-73.88420104980469,165.0,,US,US-NY,Poughkeepsie,no,KPOU,POU,POU,,https://en.wikipedia.org/wiki/Dutchess_County_Airport,
31803,3787,KPQI,medium_airport,Presque Isle International Airport,46.688999,-68.0448,534.0,,US,US-ME,Presque Isle,yes,KPQI,PQI,PQI,,https://en.wikipedia.org/wiki/Presque_Isle_International_Airport,Northern Maine Regional
31807,3788,KPRB,medium_airport,Paso Robles Municipal Airport,35.67290115,-120.6269989,840.0,,US,US-CA,Paso Robles,no,KPRB,PRB,PRB,http://www.prcity.com/government/departments/publicworks/airport/,https://en.wikipedia.org/wiki/Paso_Robles_Municipal_Airport,
31808,3789,KPRC,medium_airport,Prescott Regional Airport - Ernest A. Love Field,34.654499,-112.41999799999999,5045.0,,US,US-AZ,Prescott,yes,KPRC,PRC,PRC,,https://en.wikipedia.org/wiki/Ernest_A._Love_Field,
31813,3790,KPRX,medium_airport,Cox Field,33.636600494385,-95.45079803466801,547.0,,US,US-TX,Paris,no,KPRX,PRX,PRX,,https://en.wikipedia.org/wiki/Cox_Field,Cox AAF
31816,20870,KPSC,medium_airport,Tri Cities Airport,46.26470184326172,-119.11900329589844,410.0,,US,US-WA,Pasco,yes,KPSC,PSC,PSC,,,
31819,3791,KPSM,medium_airport,Portsmouth International at Pease Airport,43.0778999329,-70.8233032227,100.0,,US,US-NH,Portsmouth,yes,KPSM,PSM,PSM,,https://en.wikipedia.org/wiki/Pease_International_Airport,
31822,3792,KPSP,medium_airport,Palm Springs International Airport,33.829700469970696,-116.50700378417969,477.0,,US,US-CA,Palm Springs,yes,KPSP,PSP,PSP,http://www.palmspringsca.gov/index.aspx?page=270,https://en.wikipedia.org/wiki/Palm_Springs_International_Airport,
31827,3793,KPTK,medium_airport,Oakland County International Airport,42.665500640869006,-83.420097351074,980.0,,US,US-MI,Pontiac,no,KPTK,PTK,PTK,https://www.oakgov.com/aviation/ocia,https://en.wikipedia.org/wiki/Oakland_County_International_Airport,"Pontiac Municipal Airport, Oakland-Pontiac Airport"
31836,20883,KPUW,medium_airport,Pullman Moscow Regional Airport,46.7439,-117.110001,2556.0,,US,US-WA,Pullman/Moscow,yes,KPUW,PUW,PUW,http://www.pullman-wa.gov/airport/,https://en.wikipedia.org/wiki/Pullman-Moscow_Regional_Airport,
31844,20890,KPVU,medium_airport,Provo Municipal Airport,40.219200134277,-111.72299957275,4497.0,,US,US-UT,Provo,yes,KPVU,PVU,PVU,http://www.provo.org/city-services/airport,https://en.wikipedia.org/wiki/Provo_Municipal_Airport,
31851,20896,KPWK,medium_airport,Chicago Executive Airport,42.114222,-87.901494,647.0,,US,US-IL,Chicago/Prospect Heights/Wheeling,no,KPWK,PWK,PWK,http://chiexec.com/,https://en.wikipedia.org/wiki/Chicago_Executive_Airport,
31853,3797,KPWT,medium_airport,Bremerton National Airport,47.490200042725,-122.76499938965,444.0,,US,US-WA,Bremerton,no,KPWT,PWT,PWT,https://en.wikipedia.org/wiki/Bremerton_National_Airport,https://en.wikipedia.org/wiki/Bremerton_National_Airport,
32920,3837,KRAL,medium_airport,Riverside Municipal Airport,33.95190048,-117.4449997,819.0,,US,US-CA,Riverside,no,KRAL,RAL,RAL,http://www.riversideca.gov/airport/,https://en.wikipedia.org/wiki/Riverside_Municipal_Airport,
32921,3838,KRAP,medium_airport,Rapid City Regional Airport,44.0452995300293,-103.05699920654295,3204.0,,US,US-SD,Rapid City,yes,KRAP,RAP,RAP,,https://en.wikipedia.org/wiki/Rapid_City_Regional_Airport,
32927,3839,KRBL,medium_airport,Red Bluff Municipal Airport,40.1506996155,-122.25199890100001,352.0,,US,US-CA,Red Bluff,no,KRBL,RBL,RBL,,https://en.wikipedia.org/wiki/Red_Bluff_Municipal_Airport,
32931,3840,KRCA,medium_airport,Ellsworth Air Force Base,44.14500046,-103.1039963,3276.0,,US,US-SD,Rapid City,no,KRCA,RCA,RCA,http://www.ellsworth.af.mil/,https://en.wikipedia.org/wiki/Ellsworth_Air_Force_Base,28th Bomb Wing
32939,3841,KRDD,medium_airport,Redding Municipal Airport,40.50899887,-122.2929993,505.0,,US,US-CA,Redding,yes,KRDD,RDD,RDD,,https://en.wikipedia.org/wiki/Redding_Municipal_Airport,
32940,3842,KRDG,medium_airport,Reading Regional Carl A Spaatz Field,40.378501892089844,-75.96520233154297,344.0,,US,US-PA,Reading,yes,KRDG,RDG,RDG,,https://en.wikipedia.org/wiki/Reading_Regional_Airport,
32942,3843,KRDM,medium_airport,Roberts Field,44.254100799999996,-121.15000149999999,3080.0,,US,US-OR,Redmond,yes,KRDM,RDM,RDM,,https://en.wikipedia.org/wiki/Roberts_Field,
32943,20922,KRDR,medium_airport,Grand Forks Air Force Base,47.961101532,-97.4011993408,913.0,,US,US-ND,Grand Forks,no,KRDR,RDR,RDR,http://www.grandforks.af.mil/,https://en.wikipedia.org/wiki/Grand_Forks_Air_Force_Base,
32952,3846,KRHI,medium_airport,Rhinelander Oneida County Airport,45.63119888305664,-89.46749877929688,1624.0,,US,US-WI,Rhinelander,yes,KRHI,RHI,RHI,,https://en.wikipedia.org/wiki/Rhinelander-Oneida_County_Airport,
32959,20931,KRIL,medium_airport,Garfield County Regional Airport,39.526299,-107.726997,5548.0,,US,US-CO,Rifle,no,KRIL,RIL,RIL,http://www.rifleairport.com/,https://en.wikipedia.org/wiki/Garfield_County_Regional_Airport,Rifle Airport
32962,3849,KRIV,medium_airport,March ARB Airport,33.880699,-117.259003,1536.0,,US,US-CA,Riverside,no,KRIV,RIV,RIV,,https://en.wikipedia.org/wiki/March_Air_Reserve_Base,
32963,20933,KRIW,medium_airport,Riverton Regional Airport,43.064201355,-108.459999084,5525.0,,US,US-WY,Riverton,no,KRIW,RIW,RIW,,https://en.wikipedia.org/wiki/Riverton_Regional_Airport,
32970,3850,KRKS,medium_airport,Southwest Wyoming Regional Airport,41.5942,-109.065001,6764.0,,US,US-WY,Rock Springs,yes,KRKS,RKS,RKS,,https://en.wikipedia.org/wiki/Rock_Springs_-_Sweetwater_County_Airport,Rock Springs Sweetwater County
32973,20940,KRME,medium_airport,Griffiss International Airport,43.23379898,-75.40699768,504.0,,US,US-NY,Rome,no,KRME,RME,RME,http://www.ocgov.net/oneida/airport,https://en.wikipedia.org/wiki/Griffiss_Airfield,
32974,3851,KRMG,medium_airport,Richard B Russell Airport,34.3506011963,-85.15799713130002,644.0,,US,US-GA,Rome,no,KRMG,RMG,RMG,http://www.romefloyd.com/EconomicDevelopment/Airport/tabid/306/Default.aspx,https://en.wikipedia.org/wiki/Richard_B._Russell_Airport,Towers Field
32989,3856,KROW,medium_airport,Roswell Air Center Airport,33.301601,-104.530998,3671.0,,US,US-NM,Roswell,yes,KROW,ROW,ROW,,https://en.wikipedia.org/wiki/Roswell_International_Air_Center,"Roswell Army Air Field, Walker Air Force Base"
33002,20962,KRSL,medium_airport,Russell Municipal Airport,38.872100830078004,-98.811798095703,1862.0,,US,US-KS,Russell,no,KRSL,RSL,RSL,http://www.russellcity.org/airport.php,,
33013,3859,KRUT,medium_airport,Rutland - Southern Vermont Regional Airport,43.52939987,-72.94960022,787.0,,US,US-VT,Rutland,yes,KRUT,RUT,RUT,,https://en.wikipedia.org/wiki/Rutland_State_Airport,
33017,20972,KRVS,medium_airport,Richard Lloyd Jones Jr Airport,36.039600372314,-95.98459625244101,638.0,,US,US-OK,Tulsa,no,KRVS,RVS,RVS,http://www.tulsaairports.com/general-aviation/r-l-jones/,https://en.wikipedia.org/wiki/Richard_Lloyd_Jones_Jr._Airport,Riverside Airport
33018,20973,KRWF,medium_airport,Redwood Falls Municipal Airport,44.54719925,-95.08229828,1024.0,,US,US-MN,Redwood Falls,no,KRWF,RWF,RWF,,,
33019,3860,KRWI,medium_airport,Rocky Mount Wilson Regional Airport,35.856300354003906,-77.89189910888672,159.0,,US,US-NC,Rocky Mount,no,KRWI,RWI,RWI,,,
33020,20974,KRWL,medium_airport,Rawlins Municipal Airport/Harvey Field,41.80559921,-107.1999969,6813.0,,US,US-WY,Rawlins,no,KRWL,RWL,RWL,http://www.wyomingairports.org/index.php?/main/airports_detail/rawlins_municipal_airport/,https://en.wikipedia.org/wiki/Rawlins_Municipal_Airport,
33078,3861,KSAC,medium_airport,Sacramento Executive Airport,38.5125007629,-121.49299621600001,24.0,,US,US-CA,Sacramento,no,KSAC,SAC,SAC,http://www.sacramento.aero/sac/,https://en.wikipedia.org/wiki/Sacramento_Executive_Airport,"Sutterville Aerodrome, Sacramento Municipal"
33080,21033,KSAF,medium_airport,Santa Fe Municipal Airport,35.617099761999995,-106.08899688700001,6348.0,,US,US-NM,Santa Fe,no,KSAF,SAF,SAF,,,
33085,3865,KSAW,medium_airport,Sawyer International Airport,46.3535995483,-87.39540100100001,1221.0,,US,US-MI,Marquette,no,KSAW,MQT,SAW,http://www.sawyerairport.com/,https://en.wikipedia.org/wiki/Sawyer_International_Airport,
33087,3866,KSBA,medium_airport,Santa Barbara Municipal Airport,34.42620087,-119.8399963,13.0,,US,US-CA,Santa Barbara,yes,KSBA,SBA,SBA,,https://en.wikipedia.org/wiki/Santa_Barbara_Airport,
33088,3867,KSBD,medium_airport,San Bernardino International Airport,34.0954017639,-117.23500061,1159.0,,US,US-CA,San Bernardino,no,KSBD,SBD,SBD,http://sbdairport.com/,https://en.wikipedia.org/wiki/San_Bernardino_International_Airport,"Norton AFB, San Bernardino Air Depot"
33092,3869,KSBP,medium_airport,San Luis County Regional Airport,35.2368011475,-120.64199829100001,212.0,,US,US-CA,San Luis Obispo,yes,KSBP,SBP,SBP,http://www.sloairport.com/,https://en.wikipedia.org/wiki/San_Luis_Obispo_County_Regional_Airport,SLO Airport
33096,3870,KSBY,medium_airport,Salisbury Ocean City Wicomico Regional Airport,38.34049987792969,-75.51029968261719,52.0,,US,US-MD,Salisbury,yes,KSBY,SBY,SBY,,https://en.wikipedia.org/wiki/Wicomico_Regional_Airport,
33099,3871,KSCH,medium_airport,Schenectady County Airport,42.852500915527,-73.92890167236301,378.0,,US,US-NY,Schenectady,no,KSCH,SCH,SCH,http://www.schenectadycounty.com/FullStory.aspx?m=100&amid=432,https://en.wikipedia.org/wiki/Schenectady_County_Airport,
33100,3872,KSCK,medium_airport,Stockton Metropolitan Airport,37.894199371338,-121.2379989624,33.0,,US,US-CA,Stockton,no,KSCK,SCK,SCK,http://www.sjgov.org/airport/,https://en.wikipedia.org/wiki/Stockton_Metropolitan_Airport,
33106,3874,KSDM,medium_airport,Brown Field Municipal Airport,32.572299957275,-116.98000335693001,526.0,,US,US-CA,San Diego,no,KSDM,SDM,SDM,http://www.sandiego.gov/airports/brown/,https://en.wikipedia.org/wiki/Brown_Field_Municipal_Airport,
33107,21046,KSDY,medium_airport,Sidney - Richland Regional Airport,47.706902,-104.193001,1985.0,,US,US-MT,Sidney,no,KSDY,SDY,SDY,,https://en.wikipedia.org/wiki/Sidney%E2%80%93Richland_Municipal_Airport,
33119,3877,KSFF,medium_airport,Felts Field,47.682800292969,-117.32299804688,1953.0,,US,US-WA,Spokane,no,KSFF,SFF,SFF,http://feltsfield.spokaneairports.net/,https://en.wikipedia.org/wiki/Felts_Field_Airport,Parkwater Airstrip
33127,3880,KSGH,medium_airport,Springfield-Beckley Municipal Airport,39.840301513671996,-83.840202331543,1051.0,,US,US-OH,Springfield,no,KSGH,SGH,SGH,http://www.airparkohio.com/beckly_airport.html,https://en.wikipedia.org/wiki/Springfield-Beckley_Municipal_Airport,
33128,21061,KSGJ,medium_airport,Northeast Florida Regional Airport,29.9592,-81.339798,10.0,,US,US-FL,St Augustine,yes,KSGJ,UST,SGJ,http://www.flynf.com/,https://en.wikipedia.org/wiki/St._Augustine_Airport,"St Augustine Airport, NAAS St. Augustine"
33129,21062,KSGR,medium_airport,Sugar Land Regional Airport,29.622299194335998,-95.65650177001999,82.0,,US,US-TX,Houston,no,KSGR,SGR,SGR,http://www.sugarlandtx.gov/index.aspx?nid=1073,https://en.wikipedia.org/wiki/Sugar_Land_Regional_Airport,Hull Field
33132,21065,KSGU,medium_airport,St George Regional Airport,37.036389,-113.510306,2941.0,,US,US-UT,St George,yes,KSGU,SGU,SGU,http://www.sgcity.org/departments/publicworks/airport/,https://en.wikipedia.org/wiki/St._George_Regional_Airport,DXZ
33136,3881,KSHR,medium_airport,Sheridan County Airport,44.76919937133789,-106.9800033569336,4021.0,,US,US-WY,Sheridan,yes,KSHR,SHR,SHR,,https://en.wikipedia.org/wiki/Sheridan_County_Airport,
33137,3882,KSHV,medium_airport,Shreveport Regional Airport,32.446602,-93.8256,258.0,,US,US-LA,Shreveport,yes,KSHV,SHV,SHV,,https://en.wikipedia.org/wiki/Shreveport_Regional_Airport,
33144,3884,KSJT,medium_airport,San Angelo Regional Mathis Field,31.35770034790039,-100.49600219726562,1919.0,,US,US-TX,San Angelo,yes,KSJT,SJT,SJT,,https://en.wikipedia.org/wiki/San_Angelo_Regional_Airport,
33147,3886,KSKF,medium_airport,Lackland Air Force Base,29.38419914,-98.58110046,691.0,,US,US-TX,San Antonio,no,KSKF,SKF,SKF,,https://en.wikipedia.org/wiki/Lackland_Air_Force_Base,"Kelly Field Annex, Lackland AFB"
33153,3888,KSLE,medium_airport,Salem Municipal Airport/McNary Field,44.90950012,-123.00299840000002,214.0,,US,US-OR,Salem,no,KSLE,SLE,SLE,http://www.flysalem.com/,https://en.wikipedia.org/wiki/McNary_Field,4OR1
33158,3890,KSLK,medium_airport,Adirondack Regional Airport,44.38529968261719,-74.2061996459961,1663.0,,US,US-NY,Saranac Lake,yes,KSLK,SLK,SLK,,https://en.wikipedia.org/wiki/Adirondack_Regional_Airport,
33159,3891,KSLN,medium_airport,Salina Municipal Airport,38.79100036621094,-97.6521987915039,1288.0,,US,US-KS,Salina,yes,KSLN,SLN,SLN,,https://en.wikipedia.org/wiki/Salina_Municipal_Airport,
33163,21085,KSME,medium_airport,Lake Cumberland Regional Airport,37.0533981323,-84.61589813229999,927.0,,US,US-KY,Somerset,no,KSME,SME,SME,,https://en.wikipedia.org/wiki/Lake_Cumberland_Regional_Airport,
33165,21086,KSMN,medium_airport,Lemhi County Airport,45.1237983704,-113.880996704,4043.0,,US,US-ID,Salmon,no,KSMN,SMN,SMN,http://lemhicountyairport.com/,https://en.wikipedia.org/wiki/Lemhi_County_Airport,
33169,3893,KSMX,medium_airport,Santa Maria Pub/Capt G Allan Hancock Field,34.89889908,-120.4570007,261.0,,US,US-CA,Santa Maria,yes,KSMX,SMX,SMX,,https://en.wikipedia.org/wiki/Santa_Maria_Public_Airport,
33175,3895,KSNS,medium_airport,Salinas Municipal Airport,36.662799835205,-121.60600280761999,85.0,,US,US-CA,Salinas,no,KSNS,SNS,SNS,http://www.ci.salinas.ca.us/services/airport/airport.cfm,https://en.wikipedia.org/wiki/Salinas_Municipal_Airport,
33176,21094,KSNY,medium_airport,Sidney Municipal-Lloyd W Carr Field,41.10129929,-102.98500059999999,4313.0,,US,US-NE,Sidney,no,KSNY,SNY,SNY,http://www.cityofsidney.org/283/Airport,https://en.wikipedia.org/wiki/Sidney_Municipal_Airport_(Nebraska),
33198,3900,KSRR,medium_airport,Sierra Blanca Regional Airport,33.462799072266,-105.53500366211,6814.0,,US,US-NM,Ruidoso,no,KSRR,RUI,SRR,,https://en.wikipedia.org/wiki/Sierra_Blanca_Regional_Airport,
33200,21109,KSSF,medium_airport,Stinson Municipal Airport,29.336999893188,-98.47109985351601,577.0,,US,US-TX,San Antonio,no,KSSF,SSF,SSF,http://www.sanantonio.gov/SSF.aspx,https://en.wikipedia.org/wiki/Stinson_Municipal_Airport,
33201,3902,KSSI,medium_airport,St Simons Island Airport,31.1518,-81.391296,19.0,,US,US-GA,St Simons Island,no,KSSI,SSI,SSI,http://www.goldenisles.com/listing/mckinnon-st-simons-island-airport,https://en.wikipedia.org/wiki/Malcolm_McKinnon_Airport,"Malcolm McKinnon, NAS St. Simons Island, Brunswick"
33204,3903,KSTC,medium_airport,Saint Cloud Regional Airport,45.5466,-94.059898,1031.0,,US,US-MN,Saint Cloud,yes,KSTC,STC,STC,,https://en.wikipedia.org/wiki/St._Cloud_Regional_Airport,
33207,3904,KSTJ,medium_airport,Rosecrans Memorial Airport,39.771900177002,-94.909698486328,826.0,,US,US-MO,St Joseph,no,KSTJ,STJ,STJ,http://www.stjoemo.info/index.aspx?NID=303,https://en.wikipedia.org/wiki/Rosecrans_Memorial_Airport,
33210,3906,KSTP,medium_airport,St Paul Downtown Holman Field,44.93450164794922,-93.05999755859376,705.0,,US,US-MN,St Paul,no,KSTP,STP,STP,,https://en.wikipedia.org/wiki/St._Paul_Downtown_Airport,
33211,21114,KSTS,medium_airport,Charles M. Schulz Sonoma County Airport,38.50899887,-122.8130035,128.0,,US,US-CA,Santa Rosa,yes,KSTS,STS,STS,http://www.sonomacountyairport.org/,https://en.wikipedia.org/wiki/Charles_M._Schulz_-_Sonoma_County_Airport,
33215,21118,KSUN,medium_airport,Friedman Memorial Airport,43.50439835,-114.2959976,5318.0,,US,US-ID,Hailey,yes,KSUN,SUN,SUN,,https://en.wikipedia.org/wiki/Friedman_Memorial_Airport,
33226,3910,KSVN,medium_airport,Hunter Army Air Field,32.00999832,-81.14569855,41.0,,US,US-GA,Savannah,no,KSVN,SVN,SVN,http://www.stewart.army.mil/units/home.asp?id=186,https://en.wikipedia.org/wiki/Hunter_Army_Airfield,
33227,3911,KSWF,medium_airport,New York Stewart International Airport,41.504101,-74.10479699999999,491.0,,US,US-NY,Newburgh,yes,KSWF,SWF,SWF,,https://en.wikipedia.org/wiki/Stewart_International_Airport,
33229,3912,KSWO,medium_airport,Stillwater Regional Airport,36.161201477051,-97.08570098876999,1000.0,,US,US-OK,Stillwater,no,KSWO,SWO,SWO,http://stillwater.org/government/city_facilities/stillwater_regional_airport/,https://en.wikipedia.org/wiki/Stillwater_Regional_Airport,
33283,3915,KTBN,medium_airport,Waynesville-St. Robert Regional Forney field,37.74160004,-92.14070129,1159.0,,US,US-MO,Fort Leonard Wood,yes,KTBN,TBN,TBN,,https://en.wikipedia.org/wiki/Waynesville_Regional_Airport_at_Forney_Field,
33286,3916,KTCC,medium_airport,Tucumcari Municipal Airport,35.182800293,-103.60299682600001,4065.0,,US,US-NM,Tucumcari,no,KTCC,TCC,TCC,http://www.cityoftucumcari.com/airport.html,https://en.wikipedia.org/wiki/Tucumcari_Municipal_Airport,
33287,3917,KTCL,medium_airport,Tuscaloosa Regional Airport,33.220600128174,-87.611396789551,170.0,,US,US-AL,Tuscaloosa,no,KTCL,TCL,TCL,http://www.tuscaloosa.com/Government/Departments/Transportation/airport,https://en.wikipedia.org/wiki/Tuscaloosa_Regional_Airport,
33289,3919,KTCS,medium_airport,Truth Or Consequences Municipal Airport,33.2369003296,-107.27200317399999,4853.0,,US,US-NM,Truth Or Consequences,no,KTCS,TCS,TCS,http://www.torcnm.org/departments/airport.html,https://en.wikipedia.org/wiki/Truth_or_Consequences_Municipal_Airport,
33295,3920,KTEB,medium_airport,Teterboro Airport,40.85010147089999,-74.060798645,9.0,,US,US-NJ,Teterboro,no,KTEB,TEB,TEB,http://www.teb.com/,https://en.wikipedia.org/wiki/Teterboro_Airport,"Manhattan, New York City, NYC"
33309,3922,KTIW,medium_airport,Tacoma Narrows Airport,47.26789856,-122.57800290000002,294.0,,US,US-WA,Tacoma,no,KTIW,TIW,TIW,,https://en.wikipedia.org/wiki/Tacoma_Narrows_Airport,
33310,3923,KTIX,medium_airport,Space Coast Regional Airport,28.514799118042003,-80.799201965332,34.0,,US,US-FL,Titusville,no,KTIX,TIX,TIX,,https://en.wikipedia.org/wiki/Space_Coast_Regional_Airport,
33320,21204,KTMB,medium_airport,Miami Executive Airport,25.6479,-80.4328,8.0,,US,US-FL,Miami,no,KTMB,TMB,TMB,http://www.miami-airport.com/kendall_tamiami.asp,https://en.wikipedia.org/wiki/Miami_Executive_Airport,Kendall-Tamiami Executive Airport
33330,21212,KTOI,medium_airport,Troy Municipal Airport at N Kenneth Campbell Field,31.860398999999997,-86.012101,398.0,,US,US-AL,Troy,no,KTOI,TOI,TOI,http://www.troyal.gov/KTOI,https://en.wikipedia.org/wiki/Troy_Municipal_Airport,
33332,21213,KTOP,medium_airport,Philip Billard Municipal Airport,39.068698883056996,-95.62249755859399,881.0,,US,US-KS,Topeka,no,KTOP,TOP,TOP,http://www.mtaa-topeka.org/billard-airport,https://en.wikipedia.org/wiki/Philip_Billard_Municipal_Airport,
33336,21216,KTPH,medium_airport,Tonopah Airport,38.06019974,-117.086998,5430.0,,US,US-NV,Tonopah,no,KTPH,TPH,TPH,http://www.tonopahnevada.com/airport.html,https://en.wikipedia.org/wiki/Tonopah_Airport,
33337,3927,KTPL,medium_airport,Draughon Miller Central Texas Regional Airport,31.15250015258789,-97.40779876708984,682.0,,US,US-TX,Temple,no,KTPL,TPL,TPL,,,
33342,21220,KTRK,medium_airport,Truckee Tahoe Airport,39.3199996948,-120.13999939,5900.0,,US,US-CA,Truckee,no,KTRK,TKF,TRK,,https://en.wikipedia.org/wiki/Truckee_Tahoe_Airport,
33344,21222,KTRM,medium_airport,Jacqueline Cochran Regional Airport,33.62670135498,-116.16000366211,-115.0,,US,US-CA,Palm Springs,no,KTRM,TRM,TRM,http://www.rcjcra.com/,https://en.wikipedia.org/wiki/Jacqueline_Cochran_Regional_Airport,"Thermal Airport, Desert Resorts Regional Airport, Thermal AAF"
33349,21228,KTTD,medium_airport,Portland Troutdale Airport,45.54940032959001,-122.40100097656,39.0,,US,US-OR,Portland,no,KTTD,TTD,TTD,https://www2.portofportland.com/Airports/Troutdale/,https://en.wikipedia.org/wiki/Portland%E2%80%93Troutdale_Airport,
33351,3929,KTTN,medium_airport,Trenton Mercer Airport,40.27669906616211,-74.8134994506836,213.0,,US,US-NJ,Trenton,yes,KTTN,TTN,TTN,,https://en.wikipedia.org/wiki/Trenton-Mercer_Airport,
33354,3931,KTUP,medium_airport,Tupelo Regional Airport,34.26810073852539,-88.7698974609375,346.0,,US,US-MS,Tupelo,yes,KTUP,TUP,TUP,,https://en.wikipedia.org/wiki/Tupelo_Regional_Airport,
33357,3933,KTVC,medium_airport,Cherry Capital Airport,44.74140167236328,-85.58219909667969,624.0,,US,US-MI,Traverse City,yes,KTVC,TVC,TVC,,https://en.wikipedia.org/wiki/Cherry_Capital_Airport,
33361,3934,KTVL,medium_airport,Lake Tahoe Airport,38.89390182495117,-119.99500274658205,6264.0,,US,US-CA,South Lake Tahoe,no,KTVL,TVL,TVL,,https://en.wikipedia.org/wiki/Lake_Tahoe_Airport,
33364,3935,KTWF,medium_airport,Joslin Field Magic Valley Regional Airport,42.4818,-114.487999,4154.0,,US,US-ID,Twin Falls,yes,KTWF,TWF,TWF,,https://en.wikipedia.org/wiki/Magic_Valley_Regional_Airport,
33367,3936,KTXK,medium_airport,Texarkana Regional Webb Field,33.45370101928711,-93.99099731445312,390.0,,US,US-AR,Texarkana,yes,KTXK,TXK,TXK,,https://en.wikipedia.org/wiki/Texarkana_Regional_Airport,
33370,3937,KTYR,medium_airport,Tyler Pounds Regional Airport,32.35409927368164,-95.40239715576172,544.0,,US,US-TX,Tyler,yes,KTYR,TYR,TYR,,https://en.wikipedia.org/wiki/Tyler_Pounds_Regional_Airport,
33424,3940,KUIN,medium_airport,Quincy Regional Baldwin Field,39.94269943,-91.19460297,768.0,,US,US-IL,Quincy,yes,KUIN,UIN,UIN,,https://en.wikipedia.org/wiki/Quincy_Regional_Airport,
33427,3941,KUKI,medium_airport,Ukiah Municipal Airport,39.125999450684,-123.20099639893,614.0,,US,US-CA,Ukiah,no,KUKI,UKI,UKI,http://www.cityofukiah.com/ukiah-airport/,https://en.wikipedia.org/wiki/Ukiah_Municipal_Airport,
33436,21300,KUNV,medium_airport,University Park Airport,40.8493003845,-77.84870147710002,1239.0,,US,US-PA,State College,yes,KUNV,SCE,UNV,http://universityparkairport.com/,https://en.wikipedia.org/wiki/University_Park_Airport,
33438,3942,KUOX,medium_airport,University Oxford Airport,34.384300231934,-89.536796569824,452.0,,US,US-MS,Oxford,no,KUOX,UOX,UOX,http://airport.olemiss.edu/,https://en.wikipedia.org/wiki/University-Oxford_Airport,
33442,21304,KUTS,medium_airport,Huntsville Regional Airport,30.7469005585,-95.5871963501,363.0,,US,US-TX,Huntsville,no,KUTS,HTV,UTS,,https://en.wikipedia.org/wiki/Huntsville_Regional_Airport,"T39, Bruce Brothers Huntsville Regional Airport, Huntsville Municipal Airport"
33451,3943,KVAD,medium_airport,Moody Air Force Base,30.967800140399998,-83.1930007935,233.0,,US,US-GA,Valdosta,no,KVAD,VAD,VAD,http://www.moody.af.mil/,https://en.wikipedia.org/wiki/Moody_Air_Force_Base,
33456,3945,KVCT,medium_airport,Victoria Regional Airport,28.85260009765625,-96.9185028076172,115.0,,US,US-TX,Victoria,yes,KVCT,VCT,VCT,,https://en.wikipedia.org/wiki/Victoria_Regional_Airport,
33461,21318,KVEL,medium_airport,Vernal Regional Airport,40.4408989,-109.5100021,5278.0,,US,US-UT,Vernal,no,KVEL,VEL,VEL,,https://en.wikipedia.org/wiki/Vernal_Airport,
33465,21321,KVGT,medium_airport,North Las Vegas Airport,36.21070098877,-115.19400024414,2205.0,,US,US-NV,Las Vegas,no,KVGT,VGT,VGT,http://www.vgt.aero/index.html,https://en.wikipedia.org/wiki/North_Las_Vegas_Airport,"Northtown Airport, Las Vegas North Air Terminal"
33473,3946,KVLD,medium_airport,Valdosta Regional Airport,30.78249931335449,-83.27670288085938,203.0,,US,US-GA,Valdosta,yes,KVLD,VLD,VLD,,https://en.wikipedia.org/wiki/Valdosta_Regional_Airport,
33478,21333,KVNY,medium_airport,Van Nuys Airport,34.209800720215,-118.48999786376999,802.0,,US,US-CA,Van Nuys,no,KVNY,VNY,VNY,,https://en.wikipedia.org/wiki/Van_Nuys_Airport,
33479,3947,KVOK,medium_airport,Volk Field,43.938999176025,-90.253402709961,912.0,,US,US-WI,Camp Douglas,no,KVOK,VOK,VOK,http://www.volkfield.ang.af.mil/,https://en.wikipedia.org/wiki/Volk_Field_Air_National_Guard_Base,"Camp Williams,"
33482,3949,KVPZ,medium_airport,Porter County Municipal Airport,41.45399857,-87.00710297,770.0,,US,US-IN,Valparaiso,no,KVPZ,VPZ,VPZ,http://www.vpz.org/,https://en.wikipedia.org/wiki/Porter_County_Municipal_Airport,
33484,3950,KVRB,medium_airport,Vero Beach Regional Airport,27.6556,-80.417901,24.0,,US,US-FL,Vero Beach,no,KVRB,VRB,VRB,http://verobeachairport.org/,https://en.wikipedia.org/wiki/Vero_Beach_Municipal_Airport,Vero Beach Municipal
33488,21339,KVTN,medium_airport,Miller Field,42.85779953,-100.5479965,2596.0,,US,US-NE,Valentine,no,KVTN,VTN,VTN,,https://en.wikipedia.org/wiki/Miller_Field_(airport),
33525,21375,KWJF,medium_airport,General WM J Fox Airfield,34.74110031,-118.21900179999999,2351.0,,US,US-CA,Lancaster,no,KWJF,WJF,WJF,,https://en.wikipedia.org/wiki/General_William_J._Fox_Airfield,
33529,21379,KWMC,medium_airport,Winnemucca Municipal Airport,40.8965988159,-117.805999756,4308.0,,US,US-NV,Winnemucca,no,KWMC,WMC,WMC,,https://en.wikipedia.org/wiki/Winnemucca_Municipal_Airport,
33532,3952,KWRI,medium_airport,Mc Guire Air Force Base,40.01559829999999,-74.59169769,131.0,,US,US-NJ,Wrightstown,no,KWRI,WRI,WRI,http://www.mcguire.af.mil/,https://en.wikipedia.org/wiki/McGuire_Air_Force_Base,
33533,3953,KWRL,medium_airport,Worland Municipal Airport,43.965697999999996,-107.95099599999999,4227.0,,US,US-WY,Worland,no,KWRL,WRL,WRL,,https://en.wikipedia.org/wiki/Worland_Municipal_Airport,
33539,3954,KWWD,medium_airport,Cape May County Airport,39.008499145500004,-74.9083023071,23.0,,US,US-NJ,Wildwood,no,KWWD,WWD,WWD,,https://en.wikipedia.org/wiki/Cape_May_Airport,
33540,21386,KWWR,medium_airport,West Woodward Airport,36.438,-99.5226667,2189.0,,US,US-OK,Woodward,no,KWWR,WWR,WWR,http://www.cityofwoodward.com/airport-89/,https://en.wikipedia.org/wiki/West_Woodward_Airport,
33543,3955,KWYS,medium_airport,Yellowstone Airport,44.68840027,-111.11799620000001,6649.0,,US,US-MT,West Yellowstone,no,KWYS,WYS,WYS,,https://en.wikipedia.org/wiki/Yellowstone_Airport,
33568,21410,KXNA,medium_airport,Northwest Arkansas Regional Airport,36.281898,-94.30680100000001,1287.0,,US,US-AR,Fayetteville/Springdale/Rogers,yes,KXNA,XNA,XNA,http://www.flyxna.com/,https://en.wikipedia.org/wiki/Northwest_Arkansas_Regional_Airport,"Bentonville, Rogers"
33603,3957,KYIP,medium_airport,Willow Run Airport,42.23789978,-83.53040314,716.0,,US,US-MI,Detroit,no,KYIP,YIP,YIP,,https://en.wikipedia.org/wiki/Willow_Run_Airport,DTT
33604,3958,KYKM,medium_airport,Yakima Air Terminal McAllister Field,46.56819916,-120.5439987,1099.0,,US,US-WA,Yakima,yes,KYKM,YKM,YKM,,https://en.wikipedia.org/wiki/Yakima_Air_Terminal,
33605,3959,KYKN,medium_airport,Chan Gurney Municipal Airport,42.916698455811,-97.385902404785,1306.0,,US,US-SD,Yankton,no,KYKN,YKN,YKN,http://www.cityofyankton.org/publicworks/airport/,https://en.wikipedia.org/wiki/Chan_Gurney_Municipal_Airport,
33607,3960,KYNG,medium_airport,Youngstown Warren Regional Airport,41.26070023,-80.67910004,1192.0,,US,US-OH,Youngstown/Warren,no,KYNG,YNG,YNG,,https://en.wikipedia.org/wiki/Youngstown-Warren_Regional_Airport,
33720,3967,KZZV,medium_airport,Zanesville Municipal Airport,39.9444007874,-81.89209747310001,900.0,,US,US-OH,Zanesville,no,KZZV,ZZV,ZZV,,https://en.wikipedia.org/wiki/Zanesville_Municipal_Airport,
42070,5336,PAAQ,medium_airport,"Warren ""Bud"" Woods Palmer Municipal Airport",61.594898,-149.08901,242.0,,US,US-AK,Palmer,no,PAAQ,PAQ,PAQ,,https://en.wikipedia.org/wiki/Palmer_Municipal_Airport,"Palmer Muni, Palmer Buddy Woods Municipal"
42072,5337,PABA,medium_airport,Barter Island LRRS Airport,70.13400268550001,-143.582000732,2.0,,US,US-AK,Barter Island Lrrs,no,PABA,BTI,BTI,,https://en.wikipedia.org/wiki/Barter_Island_LRRS_Airport,
42073,5338,PABE,medium_airport,Bethel Airport,60.77980042,-161.8379974,126.0,,US,US-AK,Bethel,yes,PABE,BET,BET,,https://en.wikipedia.org/wiki/Bethel_Airport,
42075,5339,PABI,medium_airport,Allen Army Airfield,63.994499206499995,-145.722000122,1291.0,,US,US-AK,Delta Junction Ft Greely,no,PABI,BIG,BIG,,https://en.wikipedia.org/wiki/Allen_Army_Airfield00000000000000,Big Delta Army Airfield
42076,5340,PABL,medium_airport,Buckland Airport,65.98159799999999,-161.149002,31.0,,US,US-AK,Buckland,no,PABL,BKC,BVK,,https://en.wikipedia.org/wiki/Buckland_Airport,7K5
42079,5342,PABR,medium_airport,Wiley Post Will Rogers Memorial Airport,71.285402,-156.766008,44.0,,US,US-AK,UtqiaÄ¡vik,yes,PABR,BRW,BRW,,https://en.wikipedia.org/wiki/Wiley_Post-Will_Rogers_Memorial_Airport,Barrow
42080,5343,PABT,medium_airport,Bettles Airport,66.91390228,-151.529007,647.0,,US,US-AK,Bettles,no,PABT,BTT,BTT,,https://en.wikipedia.org/wiki/Bettles_Airport,
42083,5345,PACD,medium_airport,Cold Bay Airport,55.20610046386719,-162.72500610351562,96.0,,US,US-AK,Cold Bay,no,PACD,CDB,CDB,,https://en.wikipedia.org/wiki/Cold_Bay_Airport,
42088,5347,PACM,medium_airport,Scammon Bay Airport,61.84529876710001,-165.570999146,14.0,,US,US-AK,Scammon Bay,no,PACM,SCM,SCM,,,
42091,5348,PACV,medium_airport,Merle K (Mudhole) Smith Airport,60.491797999999996,-145.477997,54.0,,US,US-AK,Cordova,yes,PACV,CDV,CDV,,https://en.wikipedia.org/wiki/Merle_K._(Mudhole)_Smith_Airport,Cordova Mile 13
42094,5349,PACZ,medium_airport,Cape Romanzof LRRS Airport,61.78030014,-166.03900149999998,464.0,,US,US-AK,Cape Romanzof,no,PACZ,CZF,CZF,,https://en.wikipedia.org/wiki/Cape_Romanzof_LRRS_Airport,
42095,5350,PADE,medium_airport,Deering Airport,66.069603,-162.766006,21.0,,US,US-AK,Deering,no,PADE,DRG,DEE,,https://en.wikipedia.org/wiki/Deering_Airport,0Z0
42097,16092,PADK,medium_airport,Adak Airport,51.881703,-176.648055,18.0,,US,US-AK,Adak Island,yes,PADK,ADK,ADK,,https://en.wikipedia.org/wiki/Adak_Airport,
42098,5351,PADL,medium_airport,Dillingham Airport,59.04470062,-158.50500490000002,81.0,,US,US-AK,Dillingham,yes,PADL,DLG,DLG,,https://en.wikipedia.org/wiki/Dillingham_Airport,
42099,5352,PADM,medium_airport,Marshall Don Hunter Sr Airport,61.8642997742,-162.026000977,103.0,,US,US-AK,Marshall,yes,PADM,MLL,MDM,,https://en.wikipedia.org/wiki/Marshall_Don_Hunter_Sr._Airport,3A5
42100,5353,PADQ,medium_airport,Kodiak Airport,57.75,-152.4940033,78.0,,US,US-AK,Kodiak,yes,PADQ,ADQ,ADQ,,https://en.wikipedia.org/wiki/Kodiak_Airport,
42101,5354,PADU,medium_airport,Unalaska Airport,53.900100708000004,-166.54400634799998,22.0,,US,US-AK,Unalaska,yes,PADU,DUT,DUT,,https://en.wikipedia.org/wiki/Unalaska_Airport,Dutch Harbor
42103,5355,PAED,medium_airport,Elmendorf Air Force Base,61.2509994506836,-149.8070068359375,212.0,,US,US-AK,Anchorage,no,PAED,EDF,EDF,,https://en.wikipedia.org/wiki/Elmendorf_Air_Force_Base,
42106,5356,PAEH,medium_airport,Cape Newenham LRRS Airport,58.6464004517,-162.06300354,541.0,,US,US-AK,Cape Newenham,no,PAEH,EHM,EHM,,https://en.wikipedia.org/wiki/Cape_Newenham_LRRS_Airport,
42107,5357,PAEI,medium_airport,Eielson Air Force Base,64.66570282,-147.102005,547.0,,US,US-AK,Fairbanks,no,PAEI,EIL,EIL,,https://en.wikipedia.org/wiki/Eielson_Air_Force_Base,
42109,5358,PAEM,medium_airport,Emmonak Airport,62.78609848,-164.49099730000003,13.0,,US,US-AK,Emmonak,yes,PAEM,EMK,ENM,,https://en.wikipedia.org/wiki/Emmonak_Airport,
42110,5359,PAEN,medium_airport,Kenai Municipal Airport,60.57310104370117,-151.2449951171875,99.0,,US,US-AK,Kenai,no,PAEN,ENA,ENA,,https://en.wikipedia.org/wiki/Kenai_Municipal_Airport,
42113,5361,PAFB,medium_airport,Ladd AAF Airfield,64.83750153,-147.6139984,454.0,,US,US-AK,Fairbanks/Ft Wainwright,no,PAFB,FBK,FBK,,https://en.wikipedia.org/wiki/Ladd_Army_Airfield,
42117,5363,PAFM,medium_airport,Ambler Airport,67.1063,-157.856989,334.0,,US,US-AK,Ambler,no,PAFM,ABL,AFM,,https://en.wikipedia.org/wiki/Ambler_Airport,Z60
42122,5365,PAGA,medium_airport,Edward G. Pitka Sr Airport,64.73619843,-156.93699650000002,153.0,,US,US-AK,Galena,no,PAGA,GAL,GAL,,https://en.wikipedia.org/wiki/Edward_G._Pitka_Sr._Airport,
42126,5367,PAGK,medium_airport,Gulkana Airport,62.15489960000001,-145.4570007,1586.0,,US,US-AK,Gulkana,no,PAGK,GKN,GKN,,https://en.wikipedia.org/wiki/Gulkana_Airport,
42128,5368,PAGM,medium_airport,Gambell Airport,63.76679992675781,-171.73300170898438,27.0,,US,US-AK,Gambell,no,PAGM,GAM,GAM,,https://en.wikipedia.org/wiki/Gambell_Airport,
42131,5369,PAGS,medium_airport,Gustavus Airport,58.42530060000001,-135.7070007,35.0,,US,US-AK,Gustavus,yes,PAGS,GST,GST,,https://en.wikipedia.org/wiki/Gustavus_Airport,
42134,17619,PAHC,medium_airport,Holy Cross Airport,62.18830108642578,-159.77499389648438,70.0,,US,US-AK,Holy Cross,yes,PAHC,HCR,HCA,,https://en.wikipedia.org/wiki/Holy_Cross_Airport,4Z4
42135,5370,PAHL,medium_airport,Huslia Airport,65.69789886,-156.3509979,220.0,,US,US-AK,Huslia,no,PAHL,HSL,HLA,,https://en.wikipedia.org/wiki/Huslia_Airport,
42136,5372,PAHN,medium_airport,Haines Airport,59.24380111694336,-135.52400207519528,15.0,,US,US-AK,Haines,yes,PAHN,HNS,HNS,,https://en.wikipedia.org/wiki/Haines_Airport,
42137,5373,PAHO,medium_airport,Homer Airport,59.64559936523438,-151.4770050048828,84.0,,US,US-AK,Homer,no,PAHO,HOM,HOM,,https://en.wikipedia.org/wiki/Homer_Airport,
42138,5374,PAHP,medium_airport,Hooper Bay Airport,61.52389908,-166.1470032,13.0,,US,US-AK,Hooper Bay,no,PAHP,HPB,HPB,,https://en.wikipedia.org/wiki/Hooper_Bay_Airport,
42145,5375,PAII,medium_airport,Egegik Airport,58.1855010986,-157.375,92.0,,US,US-AK,Egegik,yes,PAII,EGX,EII,,https://en.wikipedia.org/wiki/Egegik_Airport,
42146,5376,PAIK,medium_airport,Bob Baker Memorial Airport,66.9759979248,-160.43699646,166.0,,US,US-AK,Kiana,no,PAIK,IAN,IAN,,https://en.wikipedia.org/wiki/Bob_Baker_Memorial_Airport,
42147,5377,PAIL,medium_airport,Iliamna Airport,59.75439835,-154.9109955,192.0,,US,US-AK,Iliamna,no,PAIL,ILI,ILI,,https://en.wikipedia.org/wiki/Iliamna_Airport,
42148,5378,PAIM,medium_airport,Indian Mountain LRRS Airport,65.99279785,-153.7039948,1273.0,,US,US-AK,Utopia Creek,no,PAIM,UTO,UTO,,https://en.wikipedia.org/wiki/Indian_Mountain_LRRS_Airport,
42152,5379,PAJN,medium_airport,Juneau International Airport,58.35499954223633,-134.57600402832028,21.0,,US,US-AK,Juneau,yes,PAJN,JNU,JNU,,https://en.wikipedia.org/wiki/Juneau_International_Airport,
42161,5380,PAKN,medium_airport,King Salmon Airport,58.67679977,-156.6490021,73.0,,US,US-AK,King Salmon,yes,PAKN,AKN,AKN,,https://en.wikipedia.org/wiki/King_Salmon_Airport,
42163,5381,PAKP,medium_airport,Anaktuvuk Pass Airport,68.13359833,-151.7429962,2102.0,,US,US-AK,Anaktuvuk Pass,no,PAKP,AKP,AKP,,https://en.wikipedia.org/wiki/Anaktuvuk_Pass_Airport,
42164,5382,PAKT,medium_airport,Ketchikan International Airport,55.35559845,-131.7140045,89.0,,US,US-AK,Ketchikan,yes,PAKT,KTN,KTN,,https://en.wikipedia.org/wiki/Ketchikan_International_Airport,
42167,5383,PAKW,medium_airport,Klawock Airport,55.5792007446,-133.076004028,80.0,,US,US-AK,Klawock,no,PAKW,KLW,AKW,,https://en.wikipedia.org/wiki/Klawock_Airport,
42174,5385,PALU,medium_airport,Cape Lisburne LRRS Airport,68.87509918,-166.1100006,16.0,,US,US-AK,Cape Lisburne,no,PALU,LUR,LUR,,https://en.wikipedia.org/wiki/Cape_Lisburne_LRRS_Airport,
42176,21844,PAMC,medium_airport,McGrath Airport,62.95289993,-155.60600280000003,341.0,,US,US-AK,McGrath,yes,PAMC,MCG,MCG,,https://en.wikipedia.org/wiki/McGrath_Airport,
42183,5386,PAMR,medium_airport,Merrill Field,61.2135009765625,-149.843994140625,137.0,,US,US-AK,Anchorage,no,PAMR,MRI,MRI,,https://en.wikipedia.org/wiki/Merrill_Field,
42185,5387,PAMY,medium_airport,Mekoryuk Airport,60.37139892578125,-166.27099609375,48.0,,US,US-AK,Mekoryuk,no,PAMY,MYU,MYU,,,
42188,16291,PANI,medium_airport,Aniak Airport,61.58160018920898,-159.54299926757812,88.0,,US,US-AK,Aniak,yes,PANI,ANI,ANI,,https://en.wikipedia.org/wiki/Aniak_Airport,
42189,5390,PANN,medium_airport,Nenana Municipal Airport,64.54730224609375,-149.07400512695312,362.0,,US,US-AK,Nenana,no,PANN,ENN,ENN,,https://en.wikipedia.org/wiki/Nenana_Municipal_Airport,
42192,5391,PANT,medium_airport,Annette Island Airport,55.037026000000004,-131.57269499999998,119.0,,US,US-AK,Metlakatla,yes,PANT,ANN,ANN,,https://en.wikipedia.org/wiki/Annette_Island_Airport,
42194,5392,PANV,medium_airport,Anvik Airport,62.646702000000005,-160.190994,291.0,,US,US-AK,Anvik,yes,PANV,ANV,ANV,,https://en.wikipedia.org/wiki/Anvik_Airport,
42199,5393,PAOM,medium_airport,Nome Airport,64.51219940185547,-165.44500732421875,37.0,,US,US-AK,Nome,yes,PAOM,OME,OME,,https://en.wikipedia.org/wiki/Nome_Airport,
42201,5394,PAOR,medium_airport,Northway Airport,62.96129989999999,-141.9290009,1715.0,,US,US-AK,Northway,no,PAOR,ORT,ORT,,https://en.wikipedia.org/wiki/Northway_Airport,
42202,5395,PAOT,medium_airport,Ralph Wien Memorial Airport,66.88469696,-162.598999,14.0,,US,US-AK,Kotzebue,yes,PAOT,OTZ,OTZ,,https://en.wikipedia.org/wiki/Ralph_Wien_Memorial_Airport,
42204,5396,PAPB,medium_airport,St George Airport,56.5783004761,-169.662002563,125.0,,US,US-AK,St George,no,PAPB,STG,PBV,,https://en.wikipedia.org/wiki/St._George_Airport_(Alaska),
42205,5397,PAPC,medium_airport,Port Clarence Coast Guard Station,65.25370025630001,-166.85899353,10.0,,US,US-AK,Port Clarence,no,PAPC,KPC,KPC,,https://en.wikipedia.org/wiki/Port_Clarence_Coast_Guard_Station,
42207,5398,PAPG,medium_airport,Petersburg James A Johnson Airport,56.80170059,-132.9450073,111.0,,US,US-AK,Petersburg,yes,PAPG,PSG,PSG,,https://en.wikipedia.org/wiki/Petersburg_James_A._Johnson_Airport,
42208,5399,PAPH,medium_airport,Port Heiden Airport,56.95909881591797,-158.63299560546875,95.0,,US,US-AK,Port Heiden,no,PAPH,PTH,PTH,,,
42210,5400,PAPM,medium_airport,Platinum Airport,59.01139831542969,-161.82000732421875,15.0,,US,US-AK,Platinum,no,PAPM,PTU,PTU,,,
42216,5401,PAQT,medium_airport,Nuiqsut Airport,70.2099990845,-151.00599670399998,38.0,,US,US-AK,Nuiqsut,no,PAQT,NUI,AQT,,https://en.wikipedia.org/wiki/Nuiqsut_Airport,
42217,5402,PARC,medium_airport,Arctic Village Airport,68.1147,-145.578995,2092.0,,US,US-AK,Arctic Village,yes,PARC,ARC,ARC,,https://en.wikipedia.org/wiki/Arctic_Village_Airport,
42219,5403,PARY,medium_airport,Ruby Airport,64.72720337,-155.47000119999998,658.0,,US,US-AK,Ruby,no,PARY,RBY,RBY,,,
42220,5404,PASA,medium_airport,Savoonga Airport,63.6864013671875,-170.4929962158203,53.0,,US,US-AK,Savoonga,no,PASA,SVA,SVA,,,
42221,5405,PASC,medium_airport,Deadhorse Airport,70.19470215,-148.46499630000002,65.0,,US,US-AK,Deadhorse,yes,PASC,SCC,SCC,,https://en.wikipedia.org/wiki/Deadhorse_Airport,
42222,5406,PASD,medium_airport,Sand Point Airport,55.31499862670898,-160.5229949951172,21.0,,US,US-AK,Sand Point,no,PASD,SDP,SDP,,,
42223,5407,PASH,medium_airport,Shishmaref Airport,66.249604,-166.089112,12.0,,US,US-AK,Shishmaref,no,PASH,SHH,SHH,,https://en.wikipedia.org/wiki/Shishmaref_Airport,K09
42224,5408,PASI,medium_airport,Sitka Rocky Gutierrez Airport,57.04710006713867,-135.36199951171878,21.0,,US,US-AK,Sitka,yes,PASI,SIT,SIT,,https://en.wikipedia.org/wiki/Sitka_Rocky_Gutierrez_Airport,
42225,5384,PASK,medium_airport,Selawik Airport,66.60009766,-159.98599240000001,17.0,,US,US-AK,Selawik,no,PASK,WLK,WLK,,https://en.wikipedia.org/wiki/Selawik_Airport,
42227,5409,PASM,medium_airport,St Mary's Airport,62.0605011,-163.30200200000002,312.0,,US,US-AK,St Mary's,no,PASM,KSM,KSM,,https://en.wikipedia.org/wiki/St._Mary's_Airport_(Alaska),
42228,5410,PASN,medium_airport,St Paul Island Airport,57.16730117797852,-170.22000122070312,63.0,,US,US-AK,St Paul Island,no,PASN,SNP,SNP,,,
42232,5411,PASV,medium_airport,Sparrevohn LRRS Airport,61.09740067,-155.5740051,1585.0,,US,US-AK,Sparrevohn,no,PASV,SVW,SVW,,https://en.wikipedia.org/wiki/Sparrevohn_LRRS_Airport,
42234,5412,PASX,medium_airport,Soldotna Airport,60.47570037841797,-151.03399658203125,113.0,,US,US-AK,Soldotna,no,PASX,SXQ,SXQ,,,
42235,5413,PASY,medium_airport,Eareckson Air Station,52.71229935,174.1139984,95.0,,US,US-AK,Shemya,no,PASY,SYA,SYA,,https://en.wikipedia.org/wiki/Eareckson_Air_Station,
42239,5414,PATG,medium_airport,Togiak Airport,59.05279922485352,-160.39700317382812,21.0,,US,US-AK,Togiak Village,no,PATG,TOG,TOG,,,
42241,24910,PATK,medium_airport,Talkeetna Airport,62.320499420165994,-150.09399414062,358.0,,US,US-AK,Talkeetna,no,PATK,TKA,TKA,,https://en.wikipedia.org/wiki/Talkeetna_Airport,
42242,5415,PATL,medium_airport,Tatalina LRRS Airport,62.894401550299996,-155.977005005,964.0,,US,US-AK,Takotna,no,PATL,TLJ,TLJ,,https://en.wikipedia.org/wiki/Tatalina_LRRS_Airport,
42243,5416,PATQ,medium_airport,Atqasuk Edward Burnell Sr Memorial Airport,70.46704,-157.436013,96.0,,US,US-AK,Atqasuk,no,PATQ,ATK,ATK,,https://en.wikipedia.org/wiki/Atqasuk_Edward_Burnell_Sr._Memorial_Airport,Z46
42252,5418,PAVD,medium_airport,Valdez Pioneer Field,61.1339,-146.248001,121.0,,US,US-AK,Valdez,no,PAVD,VDZ,VDZ,,https://en.wikipedia.org/wiki/Valdez_Airport,Valdez Number 2
42254,5419,PAVL,medium_airport,Kivalina Airport,67.73619842529297,-164.56300354003906,13.0,,US,US-AK,Kivalina,no,PAVL,KVL,KVL,,,
42256,5420,PAWD,medium_airport,Seward Airport,60.130478000000004,-149.41861200000002,22.0,,US,US-AK,Seward,no,PAWD,SWD,SWD,,,
42257,5421,PAWG,medium_airport,Wrangell Airport,56.48429871,-132.36999509999998,49.0,,US,US-AK,Wrangell,yes,PAWG,WRG,WRG,,https://en.wikipedia.org/wiki/Wrangell_Airport,
42258,5422,PAWI,medium_airport,Wainwright Airport,70.6380004883,-159.994995117,41.0,,US,US-AK,Wainwright,no,PAWI,AIN,AWI,,https://en.wikipedia.org/wiki/Wainwright_Airport_(Alaska),
42260,5423,PAWN,medium_airport,Noatak Airport,67.56610107421875,-162.97500610351562,88.0,,US,US-AK,Noatak,no,PAWN,WTK,WTK,,,
42262,5424,PAWS,medium_airport,Wasilla Airport,61.5717010498,-149.539993286,354.0,,US,US-AK,Wasilla,no,PAWS,WWA,IYS,,https://en.wikipedia.org/wiki/Wasilla_Airport,
42265,26343,PAYA,medium_airport,Yakutat Airport,59.508717000000004,-139.660435,33.0,,US,US-AK,Yakutat,yes,PAYA,YAK,YAK,,https://en.wikipedia.org/wiki/Yakutat_Airport,
42305,5429,PFYU,medium_airport,Fort Yukon Airport,66.57150268554689,-145.25,433.0,,US,US-AK,Fort Yukon,no,PFYU,FYU,FYU,,https://en.wikipedia.org/wiki/Fort_Yukon_Airport,
42755,5441,PHBK,medium_airport,Barking Sands Airport,22.022800445599998,-159.785003662,23.0,,US,US-HI,Kekaha,no,PHBK,BKH,BKH,,https://en.wikipedia.org/wiki/Pacific_Missile_Range_Facility,"Pacific Missle Range Facility Barking Sands, Kauai"
42756,5442,PHDH,medium_airport,Dillingham Airfield,21.5795001984,-158.197006226,14.0,,US,US-HI,Mokuleia,no,PHDH,HDH,HDH,,https://en.wikipedia.org/wiki/Dillingham_Airfield,
42758,5443,PHHI,medium_airport,Wheeler Army Airfield,21.48349953,-158.03999330000002,837.0,,US,US-HI,Wahiawa,no,PHHI,HHI,HHI,,https://en.wikipedia.org/wiki/Wheeler_Army_Airfield,
42759,5444,PHHN,medium_airport,Hana Airport,20.79560089111328,-156.01400756835938,78.0,,US,US-HI,Hana,yes,PHHN,HNM,HNM,,https://en.wikipedia.org/wiki/Hana_Airport,
42761,5446,PHJH,medium_airport,Kapalua Airport,20.962900161743164,-156.67300415039062,256.0,,US,US-HI,Lahaina,yes,PHJH,JHM,JHM,,https://en.wikipedia.org/wiki/Kapalua_Airport,
42762,5447,PHJR,medium_airport,Kalaeloa Airport,21.3074,-158.070009,30.0,,US,US-HI,Kapolei,no,PHJR,JRF,JRF,http://hawaii.gov/hnl/airport-information/kalaeloa-airport-jrf,https://en.wikipedia.org/wiki/Kalaeloa_Airport,"NAX, Naval Air Station Barbers Point, John Rodgers Field"
42763,5448,PHKO,medium_airport,Ellison Onizuka Kona International Airport at Keahole,19.738782999999998,-156.045603,47.0,,US,US-HI,Kailua-Kona,yes,PHKO,KOA,KOA,,https://en.wikipedia.org/wiki/Kona_International_Airport,
42765,5449,PHLI,medium_airport,Lihue Airport,21.97599983215332,-159.33900451660156,153.0,,US,US-HI,Lihue,yes,PHLI,LIH,LIH,,https://en.wikipedia.org/wiki/Lihu'e_Airport,
42767,5450,PHMK,medium_airport,Molokai Airport,21.15290069580078,-157.0959930419922,454.0,,US,US-HI,Kaunakakai,yes,PHMK,MKK,MKK,,https://en.wikipedia.org/wiki/Molokai_Airport,
42768,5451,PHMU,medium_airport,Waimea Kohala Airport,20.001301,-155.667999,2671.0,,US,US-HI,Waimea (Kamuela),yes,PHMU,MUE,MUE,,https://en.wikipedia.org/wiki/Waimea-Kohala_Airport,
42769,5452,PHNG,medium_airport,Kaneohe Bay MCAS (Marion E. Carl Field) Airport,21.450500488299998,-157.76800537100002,24.0,,US,US-HI,Kaneohe,no,PHNG,NGF,NGF,http://www.mcbhawaii.marines.mil/Units/SubordinateCommands/MarineCorpsAirStation.aspx,https://en.wikipedia.org/wiki/Marine_Corps_Air_Station_Kaneohe_Bay,
42772,5454,PHNY,medium_airport,Lanai Airport,20.785600662231445,-156.9510040283203,1308.0,,US,US-HI,Lanai City,yes,PHNY,LNY,LNY,,https://en.wikipedia.org/wiki/Lanai_Airport,
42773,5455,PHOG,medium_airport,Kahului Airport,20.8986,-156.429993,54.0,,US,US-HI,Kahului,yes,PHOG,OGG,OGG,,https://en.wikipedia.org/wiki/Kahului_Airport,
42775,5456,PHSF,medium_airport,Bradshaw Army Airfield,19.760099411,-155.554000854,6190.0,,US,US-HI,Camp Pohakuloa,no,PHSF,BSF,BSF,,,
42776,5457,PHTO,medium_airport,Hilo International Airport,19.721399307250977,-155.04800415039062,38.0,,US,US-HI,Hilo,yes,PHTO,ITO,ITO,,https://en.wikipedia.org/wiki/Hilo_International_Airport,
42777,5458,PHUP,medium_airport,Upolu Airport,20.265300750732425,-155.86000061035156,96.0,,US,US-HI,Hawi,no,PHUP,UPP,UPP,,https://en.wikipedia.org/wiki/Upolu_Airport,
43102,5495,PPIZ,medium_airport,Point Lay LRRS Airport,69.73290253,-163.00500490000002,22.0,,US,US-AK,Point Lay,no,PPIZ,PIZ,PIZ,,https://en.wikipedia.org/wiki/Point_Lay_LRRS_Airport,
54029,324440,US-0571,medium_airport,Williston Basin International Airport,48.258387,-103.748797,2344.0,,US,US-ND,Williston,yes,KXWA,XWA,XWA,http://www.xwaproject.com/,https://en.wikipedia.org/wiki/Williston_Basin_International_Airport,
